{"version": 0.6, "generator": "Overpass API 0.7.62.7 375dc00a", "osm3s": {"timestamp_osm_base": "2025-06-19T03:15:25Z", "copyright": "The data included in this document is from www.openstreetmap.org. The data is made available under ODbL."}, "elements": [{"type": "node", "id": 338450997, "lat": 30.2682668, "lon": -97.7429695, "tags": {"amenity": "cafe", "brand": "Starbucks", "brand:wikidata": "Q37158", "cuisine": "coffee_shop", "name": "Starbucks", "official_name": "Starbucks Coffee", "opening_hours": "Mo-Fr 05:30-21:00, Sa,Su 06:30-19:00", "takeaway": "yes"}}, {"type": "node", "id": 338451013, "lat": 30.271876, "lon": -97.7411784, "tags": {"amenity": "cafe", "brand": "Starbucks", "brand:wikidata": "Q37158", "cuisine": "coffee_shop", "name": "Starbucks", "official_name": "Starbucks Coffee", "takeaway": "yes"}}, {"type": "node", "id": 345207707, "lat": 30.2953752, "lon": -97.7841583}, {"type": "node", "id": 345208506, "lat": 30.2954737, "lon": -97.7843736}, {"type": "node", "id": 345208507, "lat": 30.2954669, "lon": -97.7843212}, {"type": "node", "id": 345208508, "lat": 30.295398, "lon": -97.7843332}, {"type": "node", "id": 345208509, "lat": 30.2954642, "lon": -97.7841427}, {"type": "node", "id": 345208510, "lat": 30.2954868, "lon": -97.7843163}, {"type": "node", "id": 345208511, "lat": 30.2955121, "lon": -97.7843119}, {"type": "node", "id": 346369689, "lat": 30.4458241, "lon": -97.7902409}, {"type": "node", "id": 346369691, "lat": 30.4457566, "lon": -97.7901784}, {"type": "node", "id": 346369693, "lat": 30.4458598, "lon": -97.7900288}, {"type": "node", "id": 346369694, "lat": 30.4459271, "lon": -97.790091}, {"type": "node", "id": 472263141, "lat": 30.2026426, "lon": -97.878822, "tags": {"addr:city": "Austin", "addr:housenumber": "9600 F", "addr:postcode": "78749", "addr:state": "TX", "addr:street": "Escarpment Boulevard", "addr:unit": "700", "amenity": "cafe", "branch": "Circle C on Escarpment", "brand": "Starbucks", "brand:wikidata": "Q37158", "cuisine": "coffee_shop", "name": "Starbucks", "official_name": "Starbucks Coffee", "opening_hours": "Mo-Su 04:30-21:00", "outdoor_seating": "yes", "phone": "+1 512-288-2309", "ref": "7788", "takeaway": "yes", "website": "https://www.starbucks.com/store-locator/store/7788/circle-c-on-escarpment-9600-escarpment-blvd-bldg-f-700-austin-tx-78749198"}}, {"type": "node", "id": 480598791, "lat": 30.4019908, "lon": -97.7263957, "tags": {"addr:city": "Austin", "addr:housenumber": "11410", "addr:postcode": "78758", "addr:state": "TX", "addr:street": "Century Oaks Terrace", "addr:unit": "110", "air_conditioning": "yes", "amenity": "cafe", "branch": "The Domain Northside", "brand": "Starbucks", "brand:wikidata": "Q37158", "cuisine": "coffee_shop", "internet_access": "wlan", "name": "Starbucks", "official_name": "Starbucks Coffee", "opening_hours": "Mo-Fr 06:00-21:00; Sa,Su 06:30-21:00", "outdoor_seating": "yes", "phone": "+1 737-207-1987", "takeaway": "yes", "website": "https://www.starbucks.com/store-locator/store/1019779/the-domain-northside-3120-palm-way-110-austin-tx-78758-us", "wheelchair": "yes"}}, {"type": "node", "id": 530778738, "lat": 30.3158003, "lon": -97.7416401, "tags": {"amenity": "cafe", "name": "Upper Crust Bakery", "wheelchair": "limited"}}, {"type": "node", "id": 530779155, "lat": 30.3173785, "lon": -97.7406015, "tags": {"amenity": "cafe", "name": "Pacha"}}, {"type": "node", "id": 530788990, "lat": 30.3540549, "lon": -97.7272892, "tags": {"amenity": "cafe", "name": "Genuine Joe Coffeehouse"}}, {"type": "node", "id": 530929398, "lat": 30.3065679, "lon": -97.7451642, "tags": {"amenity": "cafe", "name": "Teo's Gelato and Espresso"}}, {"type": "node", "id": 530932290, "lat": 30.3327051, "lon": -97.7601993, "tags": {"amenity": "cafe", "name": "Russell's Bakery"}}, {"type": "node", "id": 534447807, "lat": 30.2953787, "lon": -97.7432724, "tags": {"amenity": "cafe", "cuisine": "brunch", "name": "Counter Cafe", "opening_hours": "Mo-Su 07:00-15:00", "website": "https://www.countercafe.com/"}}, {"type": "node", "id": 534448267, "lat": 30.2948674, "lon": -97.742826, "tags": {"amenity": "cafe", "name": "Ken's Donuts"}}, {"type": "node", "id": 534455646, "lat": 30.3016888, "lon": -97.7386124, "tags": {"amenity": "cafe", "name": "La Tazza Fresca"}}, {"type": "node", "id": 536730905, "lat": 30.2998365, "lon": -97.7220134}, {"type": "node", "id": 536730907, "lat": 30.2997621, "lon": -97.7218542}, {"type": "node", "id": 536730909, "lat": 30.2998313, "lon": -97.7218108}, {"type": "node", "id": 536730911, "lat": 30.2999057, "lon": -97.72197}, {"type": "node", "id": 561484694, "lat": 30.141679, "lon": -97.832796, "tags": {"amenity": "cafe", "name": "Chuck's Deli"}}, {"type": "node", "id": 564537851, "lat": 30.1852296, "lon": -97.8471973, "tags": {"addr:housenumber": "110", "addr:street": "Brodie Lane", "amenity": "cafe", "cuisine": "coffee_shop", "name": "Texenza Coffie", "takeaway": "yes"}}, {"type": "node", "id": 565736565, "lat": 30.1826884, "lon": -97.8471269}, {"type": "node", "id": 565736566, "lat": 30.182636, "lon": -97.847016}, {"type": "node", "id": 565736570, "lat": 30.1828147, "lon": -97.8469028}, {"type": "node", "id": 565736572, "lat": 30.182867, "lon": -97.8470138}, {"type": "node", "id": 573843025, "lat": 30.3185317, "lon": -97.7245043, "tags": {"addr:housenumber": "221", "addr:postcode": "78751", "addr:street": "W North Loop Blvd.", "amenity": "cafe", "cuisine": "coffee_shop", "internet_access": "wlan", "internet_access:fee": "no", "name": "Epoch Coffee", "website": "https://www.epochcoffee.com/"}}, {"type": "node", "id": 599493118, "lat": 30.394918, "lon": -97.7525341, "tags": {"addr:city": "Austin", "addr:housenumber": "9722", "addr:postcode": "78759", "addr:state": "TX", "addr:street": "Great Hills Trail", "addr:unit": "380", "amenity": "cafe", "branch": "Great Hills Trail & Jollyville", "brand": "Starbucks", "brand:wikidata": "Q37158", "cuisine": "coffee_shop", "name": "Starbucks", "official_name": "Starbucks Coffee", "phone": "+1 512-795-1965", "ref": "8362", "takeaway": "yes", "website": "https://www.starbucks.com/store-locator/store/8362/great-hills-trail-jollyville-9722-great-hills-trl-ste-380-austin-tx-787597266-u"}}, {"type": "node", "id": 668901036, "lat": 30.2023145, "lon": -97.8062415}, {"type": "node", "id": 668901037, "lat": 30.2024753, "lon": -97.8063421}, {"type": "node", "id": 668901067, "lat": 30.2023192, "lon": -97.8063545}, {"type": "node", "id": 668901102, "lat": 30.2024645, "lon": -97.806229}, {"type": "node", "id": 806741774, "lat": 30.2846841, "lon": -97.7324514, "tags": {"amenity": "cafe", "brand": "Starbucks", "brand:wikidata": "Q37158", "cuisine": "coffee_shop", "name": "Starbucks", "official_name": "Starbucks Coffee", "takeaway": "yes"}}, {"type": "node", "id": 860544255, "lat": 30.3618881, "lon": -97.7177864}, {"type": "node", "id": 860544256, "lat": 30.3617113, "lon": -97.7177351}, {"type": "node", "id": 860544257, "lat": 30.3617392, "lon": -97.7175626}, {"type": "node", "id": 860544258, "lat": 30.361688, "lon": -97.7175491}, {"type": "node", "id": 860544259, "lat": 30.3616973, "lon": -97.7175114}, {"type": "node", "id": 860544260, "lat": 30.361902, "lon": -97.7175815}, {"type": "node", "id": 860544261, "lat": 30.3618741, "lon": -97.7176812}, {"type": "node", "id": 860544262, "lat": 30.3619067, "lon": -97.7176947}, {"type": "node", "id": 864958865, "lat": 30.4463352, "lon": -97.8064641, "tags": {"amenity": "cafe", "name": "Big City Bagels & Subs"}}, {"type": "node", "id": 919327835, "lat": 30.2512104, "lon": -97.7657583, "tags": {"amenity": "cafe", "name": "Picnik"}}, {"type": "node", "id": 919334307, "lat": 30.252259, "lon": -97.7635967, "tags": {"addr:city": "Austin", "addr:housenumber": "1509", "addr:postcode": "78704", "addr:state": "TX", "addr:street": "South Lamar Boulevard", "addr:unit": "100", "amenity": "cafe", "branch": "South Lamar & Collier", "brand": "Starbucks", "brand:wikidata": "Q37158", "cuisine": "coffee_shop", "name": "Starbucks", "official_name": "Starbucks Coffee", "phone": "+1 512-912-7919", "ref": "12397", "takeaway": "yes", "website": "https://www.starbucks.com/store-locator/store/12397/s-lamar-collier-1509-south-lamar-blvd-suite-100-austin-tx-78704296"}}, {"type": "node", "id": 919335942, "lat": 30.2561056, "lon": -97.7462026, "tags": {"addr:city": "Austin", "addr:housenumber": "515", "addr:postcode": "78704", "addr:street": "South Congress Avenue", "air_conditioning": "yes", "amenity": "cafe", "diet:vegan": "yes", "diet:vegetarian": "yes", "email": "bennucoffee@gmail.com", "indoor_seating": "yes", "internet_access": "wlan", "internet_access:fee": "customers", "name": "Bennu Coffee Shop", "opening_hours": "Mo-Su 06:00-01:00", "outdoor_seating": "yes", "payment:credit_cards": "yes", "payment:debit_cards": "yes", "phone": "+1-512-448-3919", "smoking": "outside", "website": "https://bennucoffee.com/", "wheelchair": "no"}}, {"type": "node", "id": 919339993, "lat": 30.2439425, "lon": -97.7583643, "tags": {"amenity": "cafe", "name": "Fair Bean Coffee"}}, {"type": "node", "id": 919341613, "lat": 30.246512, "lon": -97.7566288, "tags": {"amenity": "cafe", "name": "Bouldin Creek Coffee House"}}, {"type": "node", "id": 919343141, "lat": 30.2448093, "lon": -97.7569898, "tags": {"amenity": "cafe", "name": "Once Over Coffee Bar", "wheelchair": "yes"}}, {"type": "node", "id": 919346675, "lat": 30.2332092, "lon": -97.7648433, "tags": {"addr:housenumber": "3115", "addr:street": "South 1st Street", "amenity": "cafe", "name": "Summermoon Coffee Bar"}}, {"type": "node", "id": 919361274, "lat": 30.234308, "lon": -97.757606}, {"type": "node", "id": 1131861112, "lat": 30.444888, "lon": -97.743589}, {"type": "node", "id": 1148144462, "lat": 30.2686456, "lon": -97.7423865}, {"type": "node", "id": 1226387342, "lat": 30.3959033, "lon": -97.7275003, "tags": {"amenity": "cafe", "name": "Yogurt Planet"}}, {"type": "node", "id": 1249186619, "lat": 30.3952181, "lon": -97.7493734, "tags": {"amenity": "cafe", "name": "FireBowlCafe"}}, {"type": "node", "id": 1249567944, "lat": 30.3987013, "lon": -97.7491029, "tags": {"amenity": "cafe", "name": "Yogertz"}}, {"type": "node", "id": 1249568695, "lat": 30.3999342, "lon": -97.7483653, "tags": {"amenity": "cafe", "name": "Great Harvest Bread Co."}}, {"type": "node", "id": 1250747747, "lat": 30.4001004, "lon": -97.7041809, "tags": {"addr:city": "Austin", "addr:housenumber": "11900", "addr:postcode": "78758", "addr:state": "TX", "addr:street": "Metric Boulevard", "addr:unit": "K", "amenity": "cafe", "contact:facebook": "https://www.facebook.com/CafeJavaMetric", "cuisine": "american", "delivery": "yes", "diet:vegetarian": "yes", "internet_access": "yes", "internet_access:fee": "no", "name": "Cafe Java", "outdoor_seating": "yes", "phone": "+1-512-339-7677", "takeaway": "yes", "wheelchair": "yes"}}, {"type": "node", "id": 1251977767, "lat": 30.4075615, "lon": -97.7134001, "tags": {"amenity": "cafe", "name": "sodade"}}, {"type": "node", "id": 1254086038, "lat": 30.394281, "lon": -97.7202436, "tags": {"air_conditioning": "yes", "amenity": "cafe", "name": "Summer Moon Coffee Bar", "opening_hours": "Mo-Fr 06:00-20:00; Sa,Su 08:00-20:00", "wheelchair": "yes"}}, {"type": "node", "id": 1431494369, "lat": 30.3138337, "lon": -97.7199873, "tags": {"addr:housenumber": "5011", "addr:street": "Duval Street", "amenity": "cafe", "cuisine": "coffee_shop", "internet_access": "wlan", "internet_access:fee": "no", "name": "Flightpath Coffee House", "website": "http://flightpathcoffeehouse.com/"}}, {"type": "node", "id": 1481721312, "lat": 30.2699007, "lon": -97.7540185, "tags": {"addr:city": "Austin", "addr:housenumber": "907", "addr:postcode": "78703", "addr:state": "TX", "addr:street": "West 5th Street", "addr:unit": "102", "amenity": "cafe", "branch": "5th & Lamar", "brand": "Starbucks", "brand:wikidata": "Q37158", "cuisine": "coffee_shop", "image": "https://osm-img.piperswe.me/20250328_osm_survey_5_30/20250328_0072.jpg", "name": "Starbucks", "official_name": "Starbucks Coffee", "phone": "+1 512-708-9103", "ref": "11419", "takeaway": "yes", "website": "https://www.starbucks.com/store-locator/store/11419/5th-lamar-907-w-5th-st-ste-102-austin-tx-787035427-us", "wheelchair": "yes"}}, {"type": "node", "id": 1483653748, "lat": 30.2643747, "lon": -97.7413623, "tags": {"addr:city": "Austin", "addr:housenumber": "207", "addr:postcode": "78701", "addr:state": "TX", "addr:street": "San Jacinto Boulevard", "addr:unit": "200", "amenity": "cafe", "cuisine": "coffee_shop", "name": "Revoluci\u00f3n Coffee + Juice", "website": "https://www.revolucionsa.com/"}}, {"type": "node", "id": 1483653960, "lat": 30.2638474, "lon": -97.7418971, "tags": {"addr:city": "Austin", "addr:housenumber": "200", "addr:postcode": "78701", "addr:state": "TX", "addr:street": "San Jacinto Boulevard", "addr:unit": "A", "air_conditioning": "yes", "amenity": "cafe", "cuisine": "crepe;french", "name": "Le Caf\u00e9 Cr\u00eape", "opening_hours": "Mo-Sa 07:00-15:00; Su 08:00-15:00", "outdoor_seating": "yes", "phone": "+1-512-480-0084", "website": "https://www.cafecrepeofaustin.com/"}}, {"type": "node", "id": 1483931043, "lat": 30.2765454, "lon": -97.7507791, "tags": {"amenity": "cafe", "name": "Fete Accompli"}}, {"type": "node", "id": 1484100638, "lat": 30.302703, "lon": -97.7452903, "tags": {"amenity": "cafe", "name": "34th St Cafe"}}, {"type": "node", "id": 1488693500, "lat": 30.2829388, "lon": -97.7449006, "tags": {"addr:city": "Austin", "addr:housename": "food trailer in parking lot", "addr:housenumber": "1901", "addr:postcode": "78705", "addr:state": "TX", "addr:street": "Rio Grande", "amenity": "cafe", "diet:vegetarian": "only", "import": "yes", "name": "Conscious Cravings", "opening_hours": "Mo-Sa 11:00-20:00", "phone": "+1-512-782-0546", "source": "City of Austin", "website": "https://www.consciouscravingsaustin.com/"}}, {"type": "node", "id": 1489699385, "lat": 30.266973, "lon": -97.7456939, "tags": {"amenity": "cafe", "cuisine": "coffee_shop", "internet_access": "wlan", "internet_access:fee": "no", "name": "Halcyon"}}, {"type": "node", "id": 1606646724, "lat": 30.3599814, "lon": -97.7379125}, {"type": "node", "id": 1606646725, "lat": 30.3598196, "lon": -97.7380112}, {"type": "node", "id": 1606646727, "lat": 30.3597617, "lon": -97.7378837}, {"type": "node", "id": 1606646729, "lat": 30.3599235, "lon": -97.737785}, {"type": "node", "id": 1701907426, "lat": 30.2012416, "lon": -97.7684727, "tags": {"amenity": "cafe", "branch": "Company", "brand": "Starbucks", "brand:wikidata": "Q37158", "cuisine": "coffee_shop", "name": "Starbucks", "official_name": "Starbucks Coffee", "takeaway": "yes"}}, {"type": "node", "id": 1706120138, "lat": 30.4132733, "lon": -97.6882267, "tags": {"addr:city": "Austin", "addr:housenumber": "1701", "addr:postcode": "78727", "addr:state": "TX", "addr:street": "West Parmer Lane", "addr:unit": "260", "air_conditioning": "yes", "amenity": "cafe", "branch": "Metric & Parmer", "brand": "Starbucks", "brand:wikidata": "Q37158", "cuisine": "coffee_shop", "drive_through": "yes", "internet_access": "wlan", "internet_access:fee": "customers", "name": "Starbucks", "official_name": "Starbucks Coffee", "opening_hours": "05:00-22:00", "outdoor_seating": "yes", "phone": "+1 512-833-7272", "takeaway": "yes", "website": "https://www.starbucks.com/store-locator/store/15525/metric-parmer-1700-w-parmer-lane-austin-tx-787274604-us"}}, {"type": "node", "id": 1743142316, "lat": 30.4187763, "lon": -97.7025851}, {"type": "node", "id": 1743142317, "lat": 30.4188647, "lon": -97.7026642}, {"type": "node", "id": 1743142318, "lat": 30.4188989, "lon": -97.7027381}, {"type": "node", "id": 1743142319, "lat": 30.4188104, "lon": -97.7026632}, {"type": "node", "id": 1743142321, "lat": 30.4187212, "lon": -97.7026181}, {"type": "node", "id": 1937536449, "lat": 30.2841449, "lon": -97.7183747, "tags": {"addr:housenumber": "2219", "addr:postcode": "78722", "addr:street": "Manor Road", "amenity": "cafe", "cuisine": "mexican", "name": "El Chilito Cafe y Cantina", "opening_hours": "Mo-Su 08:00-21:00"}}, {"type": "node", "id": 1990907550, "lat": 30.276014, "lon": -97.8129525}, {"type": "node", "id": 1990907630, "lat": 30.2757861, "lon": -97.8129966}, {"type": "node", "id": 2137598190, "lat": 30.3277452, "lon": -97.7395271, "tags": {"amenity": "cafe", "name": "Monkey Nest", "phone": "+1-512-505-8033", "website": "https://monkeynestcoffee.com/"}}, {"type": "node", "id": 2161699449, "lat": 30.2860744, "lon": -97.7411185, "tags": {"amenity": "cafe", "brand": "Starbucks", "brand:wikidata": "Q37158", "cuisine": "coffee_shop", "name": "Starbucks", "official_name": "Starbucks Coffee", "takeaway": "yes"}}, {"type": "node", "id": 2193106582, "lat": 30.21782, "lon": -97.6896546}, {"type": "node", "id": 2193106585, "lat": 30.2176439, "lon": -97.6896277}, {"type": "node", "id": 2193106588, "lat": 30.2175674, "lon": -97.689955}, {"type": "node", "id": 2193106591, "lat": 30.2175487, "lon": -97.6898976}, {"type": "node", "id": 2193106641, "lat": 30.2177018, "lon": -97.6900006}, {"type": "node", "id": 2332626939, "lat": 30.265449, "lon": -97.740414, "tags": {"addr:city": "Austin", "addr:housenumber": "300", "addr:postcode": "78701", "addr:state": "TX", "addr:street": "East 4th Street", "amenity": "cafe", "branch": "Courtyard Austin Downtown", "brand": "Starbucks", "brand:wikidata": "Q37158", "cuisine": "coffee_shop", "name": "Starbucks", "official_name": "Starbucks Coffee", "phone": "+1 512-236-8008", "ref": "9891", "takeaway": "yes", "website": "https://www.starbucks.com/store-locator/store/9891/courtyard-austin-downtown-300-e-4th-st-austin-tx-787013612-us"}}, {"type": "node", "id": 2352597263, "lat": 30.3546718, "lon": -97.7563416, "tags": {"addr:city": "Austin", "addr:housenumber": "3637", "addr:postcode": "78731", "addr:state": "TX", "addr:street": "Far West Boulevard", "amenity": "cafe", "branch": "Far West Boulevard at Hart Lane", "brand": "Starbucks", "brand:wikidata": "Q37158", "cuisine": "coffee_shop", "name": "Starbucks", "official_name": "Starbucks Coffee", "phone": "+1 512-342-1089", "ref": "1022191", "takeaway": "yes", "website": "https://www.starbucks.com/store-locator/store/1022191/far-west-blvd-at-hart-ln-3637-far-west-blvd-austin-tx-787314122-us"}}, {"type": "node", "id": 2401659412, "lat": 30.1656017, "lon": -97.788159, "tags": {"addr:city": "Austin", "addr:housenumber": "9300", "addr:postcode": "78748", "addr:state": "TX", "addr:street": "South I-35 Service Road South", "addr:unit": "G100", "amenity": "cafe", "branch": "I-35 & Slaughter", "brand": "Starbucks", "brand:wikidata": "Q37158", "cuisine": "coffee_shop", "name": "Starbucks", "official_name": "Starbucks Coffee", "phone": "+1 512-291-8365", "ref": "7250", "takeaway": "yes", "website": "https://www.starbucks.com/store-locator/store/7250/i-35-slaughter-9300-s-i-35-service-rd-s-bound-g-100-austin-tx-787"}}, {"type": "node", "id": 2443656462, "lat": 30.3360915, "lon": -97.717558}, {"type": "node", "id": 2443656466, "lat": 30.3360532, "lon": -97.7174654}, {"type": "node", "id": 2443656472, "lat": 30.3358648, "lon": -97.7175699}, {"type": "node", "id": 2443656474, "lat": 30.3359031, "lon": -97.7176625}, {"type": "node", "id": 2452741181, "lat": 30.3048277, "lon": -97.9340427}, {"type": "node", "id": 2452741370, "lat": 30.3049333, "lon": -97.9341881}, {"type": "node", "id": 2492922372, "lat": 30.2731462, "lon": -97.8005584, "tags": {"addr:city": "Austin", "addr:housenumber": "3201", "addr:postcode": "78746", "addr:state": "TX", "addr:street": "Bee Caves Road", "addr:unit": "163", "air_conditioning": "yes", "amenity": "cafe", "branch": "Westlake", "check_date": "2023-12-24", "contact:facebook": "https://www.facebook.com/SMWestlake/", "contact:instagram": "https://instagram.com/summermoonwestlake", "cuisine": "coffee_shop", "email": "westlake@summermoon.com", "internet_access": "wlan", "internet_access:fee": "customers", "name": "Summer Moon Coffee", "opening_hours": "Tu 08:00-20:00; We-Fr 06:00-20:00; Sa 07:00-20:00; Su 07:00-16:", "outdoor_seating": "yes", "phone": "+1-512-582-0103", "takeaway": "yes", "website": "https://summermooncoffee.com/", "wheelchair": "yes"}}, {"type": "node", "id": 2493686513, "lat": 30.2323854, "lon": -97.8740357}, {"type": "node", "id": 2493686514, "lat": 30.2325478, "lon": -97.874163}, {"type": "node", "id": 2493686516, "lat": 30.2324206, "lon": -97.8739755}, {"type": "node", "id": 2493686533, "lat": 30.232583, "lon": -97.8741029}, {"type": "node", "id": 2507491258, "lat": 30.2935486, "lon": -97.7160528, "tags": {"addr:city": "Austin", "addr:housenumber": "1400", "addr:postcode": "78722", "addr:state": "TX", "addr:street": "E 38th 1/2 St.", "amenity": "cafe", "bar": "yes", "cuisine": "burger;breakfast;sandwich;dessert;tacos", "delivery": "yes", "diet:healthy": "yes", "diet:vegetarian": "yes", "internet_access": "yes", "name": "Cherrywood Coffee House", "opening_hours": "Mo-Su 07:00-22:00", "outdoor_seating": "yes", "phone": "+1-512-538-1991", "smoking": "outside", "takeaway": "yes", "website": "http://cherrywoodcoffeehouse.com/", "wheelchair": "yes"}}, {"type": "node", "id": 2527535403, "lat": 30.3701302, "lon": -97.7213963, "tags": {"amenity": "cafe", "check_date": "2025-01-15", "name": "Mikki's Replay Cafe", "note": "Only here on certain nights?"}}, {"type": "node", "id": 2530278181, "lat": 30.4019782, "lon": -97.7469768, "tags": {"amenity": "cafe", "name": "Signature Cafe"}}, {"type": "node", "id": 2530278183, "lat": 30.401983, "lon": -97.7468743, "tags": {"addr:city": "Austin", "addr:housenumber": "10900", "addr:postcode": "78759", "addr:state": "TX", "addr:street": "Research Boulevard", "amenity": "cafe", "branch": "Highway 183 & Braker Lane (Randalls)", "brand": "Starbucks", "brand:wikidata": "Q37158", "cuisine": "coffee_shop", "name": "Starbucks", "official_name": "Starbucks Coffee", "phone": "+1 512-342-2737", "ref": "15485", "takeaway": "yes", "website": "https://www.starbucks.com/store-locator/store/15485/hwy-183-braker-ln-randalls-10900-research-blvd-austin-tx-787595722-us"}}, {"type": "node", "id": 2533220664, "lat": 30.3595801, "lon": -97.7356985, "tags": {"addr:city": "Austin", "addr:housenumber": "2900", "addr:postcode": "78757", "addr:state": "TX", "addr:street": "West Anderson Lane", "amenity": "cafe", "delivery": "yes", "name": "San Francisco Bakery & Cafe", "opening_hours": "Mo-Fr 07:00-16:00; Sa 07:00-15:00", "phone": "+1-512-302-3420", "takeaway": "only", "website": "https://www.sanfranciscobakeryandcaf\u00e9.com/", "wheelchair": "yes"}}, {"type": "node", "id": 2650538872, "lat": 30.3312182, "lon": -97.7401927}, {"type": "node", "id": 2650538875, "lat": 30.3312151, "lon": -97.7404777}, {"type": "node", "id": 2650538878, "lat": 30.3311483, "lon": -97.7404812}, {"type": "node", "id": 2650538881, "lat": 30.3311483, "lon": -97.7403756}, {"type": "node", "id": 2650538884, "lat": 30.3310906, "lon": -97.740351}, {"type": "node", "id": 2650538887, "lat": 30.3310937, "lon": -97.7401962}, {"type": "node", "id": 2675179188, "lat": 30.268835, "lon": -97.741283, "tags": {"amenity": "cafe", "drive_through": "no", "name": "Slake Cafe", "outdoor_seating": "no", "takeaway": "yes"}}, {"type": "node", "id": 2727206432, "lat": 30.2797199, "lon": -97.7419273, "tags": {"addr:city": "Austin", "addr:housenumber": "314", "addr:postcode": "78701", "addr:street": "West 17th Street", "amenity": "cafe", "name": "Arturo's", "opening_hours": "Tu-Fr 08:00-14:00; Sa,Su 10:00-14:30"}}, {"type": "node", "id": 2785219877, "lat": 30.3026246, "lon": -97.7385591, "tags": {"addr:housenumber": "3706", "addr:street": "Guadalupe Street", "amenity": "cafe", "contact:phone": "+1 512 297 2612", "name": "YaYa Cafe", "website": "http://yayacafeaustin.com/"}}, {"type": "node", "id": 2793724685, "lat": 30.20047, "lon": -97.8698127, "tags": {"addr:city": "Austin", "addr:housenumber": "5701", "addr:postcode": "78749", "addr:street": "West Slaughter Lane", "amenity": "cafe", "name": "Summer Moon"}}, {"type": "node", "id": 2868784017, "lat": 30.2376538, "lon": -97.7925576, "tags": {"addr:city": "Austin", "addr:housenumber": "4006", "addr:postcode": "78704", "addr:state": "TX", "addr:street": "South Lamar Boulevard", "amenity": "cafe", "branch": "Brodie Oaks Center on South Lamar", "brand": "Starbucks", "brand:wikidata": "Q37158", "cuisine": "coffee_shop", "name": "Starbucks", "official_name": "Starbucks Coffee", "phone": "+1 512-416-7509", "ref": "16877", "takeaway": "yes", "website": "https://www.starbucks.com/store-locator/store/16877/brodie-oaks-center-on-s-lamar-4006-s-lamar-blvd-austin-tx-787048802-us"}}, {"type": "node", "id": 2970345629, "lat": 30.3058211, "lon": -97.7080023, "tags": {"addr:city": "Austin", "addr:housenumber": "1201", "addr:postcode": "78723", "addr:state": "TX", "addr:street": "Barbara Jordan Boulevard", "addr:unit": "1200", "air_conditioning": "yes", "amenity": "cafe", "branch": "I-35 & Barbara Jordan - Muelle", "brand": "Starbucks", "brand:wikidata": "Q37158", "check_date": "2023-11-22", "cuisine": "coffee_shop", "internet_access": "wlan", "internet_access:fee": "customers", "name": "Starbucks", "official_name": "Starbucks Coffee", "opening_hours": "Mo-Su 05:00-22:00", "outdoor_seating": "yes", "phone": "+1 512-391-1801", "takeaway": "yes", "website": "https://www.starbucks.com/store-locator/store/7462/i-35-barbara-jordan-mueller-w-1201-barbara-jordan-blvd-1200-austin-tx-787233083-", "wheelchair": "yes"}}, {"type": "node", "id": 3027587146, "lat": 30.2221147, "lon": -97.8373142, "tags": {"addr:city": "Austin", "addr:housenumber": "6600", "addr:postcode": "78749", "addr:state": "TX", "addr:street": "South Mopac Expressway", "addr:unit": "2100", "amenity": "cafe", "branch": "William Cannon & Mopac", "brand": "Starbucks", "brand:wikidata": "Q37158", "cuisine": "coffee_shop", "name": "Starbucks", "official_name": "Starbucks Coffee", "phone": "+1 512-358-9471", "ref": "15518", "takeaway": "yes", "toilets:wheelchair": "yes", "website": "https://www.starbucks.com/store-locator/store/15518/william-cannon-mopac-6600-s-mopac-expressway-ste-2100-austin-tx-7874914", "wheelchair": "yes"}}, {"type": "node", "id": 3112822235, "lat": 30.393758, "lon": -97.750673, "tags": {"amenity": "cafe", "brand": "Corner Bakery", "brand:wikidata": "Q5171598", "cuisine": "coffee_shop", "name": "Corner Bakery", "shop": "bakery", "takeaway": "yes"}}, {"type": "node", "id": 3159519435, "lat": 30.4071439, "lon": -97.6790975, "tags": {"addr:city": "Austin", "addr:housenumber": "12410", "addr:postcode": "78753", "addr:state": "TX", "addr:street": "North Lamar Boulevard", "addr:unit": "B", "amenity": "cafe", "cuisine": "indian;mediterranean;dessert", "diet:halal": "yes", "diet:healthy": "yes", "diet:vegetarian": "yes", "name": "Shahi Cafe", "opening_hours": "Mo-Su 11:00-20:00", "phone": "+1-512-837-8669", "takeaway": "yes", "wheelchair": "yes"}}, {"type": "node", "id": 3181780243, "lat": 30.2955191, "lon": -97.7843657}, {"type": "node", "id": 3181780244, "lat": 30.25112, "lon": -97.7493644}, {"type": "node", "id": 3181780246, "lat": 30.3106073, "lon": -97.7400068, "tags": {"addr:city": "Austin", "addr:housenumber": "4200", "addr:postcode": "78756", "addr:state": "TX", "addr:street": "North Lamar Boulevard", "addr:unit": "STE 120", "amenity": "cafe", "cuisine": "coffee_shop", "internet_access": "yes", "name": "Houndstooth", "opening_hours": "Mo-Su 06:30-17:00", "outdoor_seating": "yes", "phone": "+1-512-531-9417", "website": "https://www.houndstoothcoffee.com/"}}, {"type": "node", "id": 3181872977, "lat": 30.2510729, "lon": -97.7493828}, {"type": "node", "id": 3181872978, "lat": 30.2510869, "lon": -97.7494309}, {"type": "node", "id": 3181872979, "lat": 30.2509542, "lon": -97.7494827}, {"type": "node", "id": 3181872980, "lat": 30.2509256, "lon": -97.7493844}, {"type": "node", "id": 3181872981, "lat": 30.2511055, "lon": -97.7493143}, {"type": "node", "id": 3181892455, "lat": 30.2797982, "lon": -97.7196272, "tags": {"addr:city": "Austin", "addr:housenumber": "2001", "addr:postcode": "78702", "addr:state": "TX", "addr:street": "East Martin Luther King Jr Boulevard", "amenity": "cafe", "cuisine": "coffee_shop", "internet_access": "wlan", "internet_access:fee": "customers", "name": "Bennu Coffee", "opening_hours": "24/7", "phone": "+1-512-478-4700", "website": "https://bennucoffee.com/"}}, {"type": "node", "id": 3190821386, "lat": 30.2422172, "lon": -97.7835352, "tags": {"addr:city": "Austin", "addr:housenumber": "3003", "addr:postcode": "78704", "addr:state": "TX", "addr:street": "South Lamar Boulevard", "amenity": "cafe", "name": "Kerbey Lane Cafe", "opening_hours": "Fr-Sa 07:00-24:00; Su-Th 07:00-22:00", "outdoor_seating": "yes", "phone": "+1-512-445-4451", "website": "https://kerbeylanecafe.com/locations/south"}}, {"type": "node", "id": 3190877885, "lat": 30.2650419, "lon": -97.7460802, "tags": {"addr:housenumber": "242", "addr:street": "West 2nd Street", "amenity": "cafe", "check_date:opening_hours": "2024-09-03", "internet_access": "wlan", "name": "Jo's Coffee", "opening_hours": "Mo-Fr 07:00-18:00; Sa,Su 08:00-18:00", "phone": "+1-512-462-9003"}}, {"type": "node", "id": 3190877898, "lat": 30.2326024, "lon": -97.7562269, "tags": {"addr:housenumber": "3001", "addr:street": "South Congress Avenue", "amenity": "cafe", "cuisine": "coffee_shop", "name": "Jo's Coffee", "opening_hours:covid19": "closed"}}, {"type": "node", "id": 3190890891, "lat": 30.2662841, "lon": -97.7431138, "tags": {"addr:housenumber": "401", "addr:street": "Congress Avenue", "amenity": "cafe", "name": "Houndstooth"}}, {"type": "node", "id": 3197335001, "lat": 30.2642837, "lon": -97.7277618, "tags": {"addr:city": "Austin", "addr:housenumber": "1405", "addr:postcode": "78702", "addr:state": "TX", "addr:street": "East 7th Street", "air_conditioning": "yes", "amenity": "cafe", "cuisine": "coffee_shop", "internet_access": "wlan", "internet_access:fee": "no", "name": "Revival Coffee", "outdoor_seating": "yes"}}, {"type": "node", "id": 3245051655, "lat": 30.2658493, "lon": -97.7465097, "tags": {"addr:city": "Austin", "addr:housenumber": "301", "addr:postcode": "78701", "addr:state": "TX", "addr:street": "West 3rd Street", "amenity": "cafe", "branch": "3rd & Lavaca", "brand": "Starbucks", "brand:wikidata": "Q37158", "cuisine": "coffee_shop", "name": "Starbucks", "official_name": "Starbucks Coffee", "phone": "+1 512-391-1895", "ref": "1006594", "takeaway": "yes", "website": "https://www.starbucks.com/store-locator/store/1006594/3rd-lavaca-301-west-3rd-street-austin-tx-787013815-us"}}, {"type": "node", "id": 3304974691, "lat": 30.3880886, "lon": -97.8839822}, {"type": "node", "id": 3304974732, "lat": 30.3879302, "lon": -97.8840555}, {"type": "node", "id": 3304974875, "lat": 30.3879962, "lon": -97.8841166}, {"type": "node", "id": 3390691020, "lat": 30.2756982, "lon": -97.8124422}, {"type": "node", "id": 3390691021, "lat": 30.2757176, "lon": -97.81288}, {"type": "node", "id": 3390691022, "lat": 30.2757369, "lon": -97.812869}, {"type": "node", "id": 3390691024, "lat": 30.2757481, "lon": -97.8129632}, {"type": "node", "id": 3390691027, "lat": 30.275847, "lon": -97.8124252}, {"type": "node", "id": 3390691029, "lat": 30.275853, "lon": -97.8124561}, {"type": "node", "id": 3390691036, "lat": 30.2759326, "lon": -97.8124479}, {"type": "node", "id": 3390691037, "lat": 30.2759419, "lon": -97.8125313}, {"type": "node", "id": 3390691042, "lat": 30.2760253, "lon": -97.8126083}, {"type": "node", "id": 3390691043, "lat": 30.2760558, "lon": -97.812929}, {"type": "node", "id": 3501312163, "lat": 30.2878346, "lon": -97.7425887}, {"type": "node", "id": 3501312164, "lat": 30.2878362, "lon": -97.7425748}, {"type": "node", "id": 3501312165, "lat": 30.2878407, "lon": -97.7425653}, {"type": "node", "id": 3501312168, "lat": 30.2878502, "lon": -97.742558}, {"type": "node", "id": 3501312170, "lat": 30.287861, "lon": -97.7425552}, {"type": "node", "id": 3501312181, "lat": 30.2880684, "lon": -97.7425345}, {"type": "node", "id": 3506571688, "lat": 30.233728, "lon": -97.742452}, {"type": "node", "id": 3533712652, "lat": 30.2644493, "lon": -97.7330414, "tags": {"addr:city": "Austin", "addr:housenumber": "500", "addr:postcode": "78702", "addr:state": "TX", "addr:street": "San Marcos Street", "amenity": "cafe", "cuisine": "coffee_shop", "name": "Wright Bros. Brew & Brew", "opening_hours": "08:00-24:00", "phone": "+1-512-493-0963", "website": "https://www.thebrewandbrew.com/"}}, {"type": "node", "id": 3629449324, "lat": 30.3308809, "lon": -97.732083}, {"type": "node", "id": 3629449325, "lat": 30.3307858, "lon": -97.7318893}, {"type": "node", "id": 3629449326, "lat": 30.3307169, "lon": -97.7319347}, {"type": "node", "id": 3629449327, "lat": 30.330812, "lon": -97.7321284}, {"type": "node", "id": 3646391293, "lat": 30.260505, "lon": -97.733706, "tags": {"addr:city": "Austin", "addr:housenumber": "1010", "addr:postcode": "78702", "addr:street": "East Cesar Chavez Street", "amenity": "cafe", "cuisine": "american", "internet_access": "wlan", "name": "Cenote", "outdoor_seating": "yes", "phone": "+1-512-524-1311", "source": "Survey", "website": "https://cenoteaustin.com/"}}, {"type": "node", "id": 3654620896, "lat": 30.3189329, "lon": -97.7395309}, {"type": "node", "id": 3654620897, "lat": 30.3189603, "lon": -97.7395151}, {"type": "node", "id": 3654620898, "lat": 30.3189534, "lon": -97.7394991}, {"type": "node", "id": 3654620899, "lat": 30.3191022, "lon": -97.7394136}, {"type": "node", "id": 3654620900, "lat": 30.31916, "lon": -97.7395487}, {"type": "node", "id": 3654620901, "lat": 30.3190902, "lon": -97.7395888}, {"type": "node", "id": 3654620902, "lat": 30.3190791, "lon": -97.739573}, {"type": "node", "id": 3654620903, "lat": 30.3189762, "lon": -97.7396321}, {"type": "node", "id": 3661950162, "lat": 30.2079458, "lon": -97.8154229, "tags": {"addr:city": "Austin", "addr:housenumber": "6816", "addr:postcode": "78745", "addr:state": "TX", "addr:street": "West Gate Boulevard", "amenity": "cafe", "branch": "Westgate & William Cannon", "brand": "Starbucks", "brand:wikidata": "Q37158", "cuisine": "coffee_shop", "internet_access": "yes", "name": "Starbucks", "official_name": "Starbucks Coffee", "opening_hours": "Mo-Fr 05:00-22:00, Sa-Su 05:30-22:00", "phone": "+1 512-444-7494", "smoking": "no", "takeaway": "yes", "website": "https://www.starbucks.com/store-locator/store/15519/westgate-william-cannon-6816-westgate-blvd-austin-tx-787454813-us", "wheelchair": "limited"}}, {"type": "node", "id": 3684939524, "lat": 30.2421085, "lon": -97.7588438}, {"type": "node", "id": 3684971225, "lat": 30.2421322, "lon": -97.7589351}, {"type": "node", "id": 3684971226, "lat": 30.242145, "lon": -97.7589276}, {"type": "node", "id": 3684971227, "lat": 30.2421795, "lon": -97.7588025}, {"type": "node", "id": 3684971228, "lat": 30.2421895, "lon": -97.7590668}, {"type": "node", "id": 3684971229, "lat": 30.2422159, "lon": -97.7588863}, {"type": "node", "id": 3684971230, "lat": 30.2422252, "lon": -97.7588809}, {"type": "node", "id": 3684971231, "lat": 30.2422825, "lon": -97.7590126}, {"type": "node", "id": 3763984362, "lat": 30.264819, "lon": -97.7442485, "tags": {"amenity": "cafe", "name": "Caff\u00e9 Medici"}}, {"type": "node", "id": 3824998515, "lat": 30.338992, "lon": -97.717491, "tags": {"addr:city": "Austin", "addr:housenumber": "713", "addr:postcode": "78752", "addr:state": "TX", "addr:street": "West Saint John's Avenue", "amenity": "cafe", "coa:place_id": "283612", "cuisine": "coffee_shop", "name": "Barrett's Coffee", "opening_hours": "Mo-Su 07:00-19:00", "phone": "+1-512-677-7667", "website": "https://www.barrettscoffee.com/"}}, {"type": "node", "id": 3825152661, "lat": 30.317485, "lon": -97.722135, "tags": {"addr:housenumber": "103", "addr:postcode": "78751", "addr:street": "East North Loop Boulevard", "amenity": "cafe", "coa:place_id": "143277", "contact:instagram": "doubletrouble.atx", "cuisine": "american;breakfast;burger;coffee_shop;sandwich;tea", "diet:vegan": "yes", "name": "Double Trouble", "opening_hours": "Su-Th 07:00-22:30; Fr-Sa 07:00-00:00", "phone": "(512) 270-1955", "website:menu": "https://order.toasttab.com/online/doubletroubleatx"}}, {"type": "node", "id": 3825287499, "lat": 30.2646822, "lon": -97.7294964}, {"type": "node", "id": 3825287506, "lat": 30.2647112, "lon": -97.7295864}, {"type": "node", "id": 3825287513, "lat": 30.2647362, "lon": -97.7294734}, {"type": "node", "id": 3825287515, "lat": 30.2647372, "lon": -97.7294774}, {"type": "node", "id": 3825287772, "lat": 30.2649422, "lon": -97.7293874}, {"type": "node", "id": 3825287779, "lat": 30.2649482, "lon": -97.7294834}, {"type": "node", "id": 3825287782, "lat": 30.2649552, "lon": -97.7295044}, {"type": "node", "id": 3825287786, "lat": 30.2649582, "lon": -97.7293804}, {"type": "node", "id": 3825287801, "lat": 30.2649932, "lon": -97.7294874}, {"type": "node", "id": 3825368246, "lat": 30.26873, "lon": -97.728718}, {"type": "node", "id": 3825368247, "lat": 30.268734, "lon": -97.728738}, {"type": "node", "id": 3825368248, "lat": 30.268748, "lon": -97.728816}, {"type": "node", "id": 3825368278, "lat": 30.268861, "lon": -97.728685}, {"type": "node", "id": 3825368286, "lat": 30.26888, "lon": -97.728783}, {"type": "node", "id": 3842123743, "lat": 30.287821, "lon": -97.7469235}, {"type": "node", "id": 3842123745, "lat": 30.287827, "lon": -97.7470255}, {"type": "node", "id": 3842123759, "lat": 30.28785, "lon": -97.7469205}, {"type": "node", "id": 3842123760, "lat": 30.287851, "lon": -97.7469295}, {"type": "node", "id": 3842123761, "lat": 30.287856, "lon": -97.7470235}, {"type": "node", "id": 3842123764, "lat": 30.287858, "lon": -97.7470485}, {"type": "node", "id": 3842123796, "lat": 30.288016, "lon": -97.7469155}, {"type": "node", "id": 3842123797, "lat": 30.288024, "lon": -97.7470365}, {"type": "node", "id": 3842175206, "lat": 30.2823877, "lon": -97.7422419}, {"type": "node", "id": 3842175210, "lat": 30.282405, "lon": -97.7424767}, {"type": "node", "id": 3842175224, "lat": 30.2824466, "lon": -97.7422378}, {"type": "node", "id": 3842175226, "lat": 30.282602, "lon": -97.7424602}, {"type": "node", "id": 3842175262, "lat": 30.2827736, "lon": -97.7422194}, {"type": "node", "id": 3842175271, "lat": 30.2827874, "lon": -97.7424787}, {"type": "node", "id": 3842175273, "lat": 30.2827894, "lon": -97.7422119}, {"type": "node", "id": 3842175274, "lat": 30.2827898, "lon": -97.7422183}, {"type": "node", "id": 3842175287, "lat": 30.2828598, "lon": -97.7424735}, {"type": "node", "id": 3842175313, "lat": 30.2828457, "lon": -97.7422079}, {"type": "node", "id": 3849590371, "lat": 30.285209, "lon": -97.714688}, {"type": "node", "id": 3849590378, "lat": 30.285226, "lon": -97.714562}, {"type": "node", "id": 3849590389, "lat": 30.285249, "lon": -97.714566}, {"type": "node", "id": 3849590403, "lat": 30.285284, "lon": -97.714701}, {"type": "node", "id": 3849590411, "lat": 30.285301, "lon": -97.714576}, {"type": "node", "id": 3849676081, "lat": 30.332188, "lon": -97.735094}, {"type": "node", "id": 3849676095, "lat": 30.332211, "lon": -97.73517}, {"type": "node", "id": 3849676102, "lat": 30.332222, "lon": -97.735163}, {"type": "node", "id": 3849676119, "lat": 30.332256, "lon": -97.735261}, {"type": "node", "id": 3849676128, "lat": 30.332284, "lon": -97.735243}, {"type": "node", "id": 3849676130, "lat": 30.332287, "lon": -97.73525}, {"type": "node", "id": 3849676137, "lat": 30.3323, "lon": -97.73502}, {"type": "node", "id": 3849676158, "lat": 30.33233, "lon": -97.735079}, {"type": "node", "id": 3849676168, "lat": 30.332345, "lon": -97.735069}, {"type": "node", "id": 3849676202, "lat": 30.332395, "lon": -97.735171}, {"type": "node", "id": 3849676204, "lat": 30.332398, "lon": -97.735177}, {"type": "node", "id": 3849701572, "lat": 30.308949, "lon": -97.731349}, {"type": "node", "id": 3849701602, "lat": 30.309012, "lon": -97.731306}, {"type": "node", "id": 3849701603, "lat": 30.309019, "lon": -97.731486}, {"type": "node", "id": 3849701612, "lat": 30.30903, "lon": -97.731479}, {"type": "node", "id": 3849701627, "lat": 30.30907, "lon": -97.731555}, {"type": "node", "id": 3849701651, "lat": 30.309122, "lon": -97.73152}, {"type": "node", "id": 3849714456, "lat": 30.3044527, "lon": -97.7357544}, {"type": "node", "id": 3849714467, "lat": 30.3044807, "lon": -97.7358304}, {"type": "node", "id": 3849714471, "lat": 30.3044867, "lon": -97.7358254}, {"type": "node", "id": 3849714476, "lat": 30.3044927, "lon": -97.7358564}, {"type": "node", "id": 3849714479, "lat": 30.3044987, "lon": -97.7358524}, {"type": "node", "id": 3849714483, "lat": 30.3045097, "lon": -97.7358754}, {"type": "node", "id": 3849714512, "lat": 30.3045577, "lon": -97.7356874}, {"type": "node", "id": 3849714531, "lat": 30.3045917, "lon": -97.7357574}, {"type": "node", "id": 3849714535, "lat": 30.3045977, "lon": -97.7357534}, {"type": "node", "id": 3849714537, "lat": 30.3046037, "lon": -97.7357824}, {"type": "node", "id": 3849714542, "lat": 30.3046097, "lon": -97.7357784}, {"type": "node", "id": 3849714545, "lat": 30.3046157, "lon": -97.7358084}, {"type": "node", "id": 3849771106, "lat": 30.318904, "lon": -97.738972, "tags": {"addr:housenumber": "4801", "addr:postcode": "78756", "addr:street": "Burnet Road", "amenity": "cafe", "name": "Picnik", "opening_hours": "Su-Th 07:00-21:00; Fr-Sa 07:00-22:00", "phone": "+1-737-226-0644", "reservation": "no", "website": "https://picnikaustin.com/"}}, {"type": "node", "id": 3849778796, "lat": 30.2681344, "lon": -97.7425331, "tags": {"addr:city": "Austin", "addr:housenumber": "601", "addr:postcode": "78701", "addr:state": "TX", "addr:street": "Congress Avenue", "addr:unit": "100", "amenity": "cafe", "check_date": "2025-02-16", "cuisine": "coffee_shop", "name": "Capital One Caf\u00e9"}}, {"type": "node", "id": 3849779903, "lat": 30.270247, "lon": -97.742287, "tags": {"addr:city": "Austin", "addr:country": "US", "addr:housenumber": "802", "addr:postcode": "78701", "addr:state": "TX", "addr:street": "Congress Avenue", "amenity": "cafe", "brand": "Fleet Coffee", "brand:facebook": "https://www.facebook.com/FleetCoffeeCo", "brand:instagram": "https://www.instagram.com/fleetcoffeeco/", "brand:twitter": "https://x.com/fleetcoffeeco", "brand:website": "https://www.fleetcoffee.com/", "check_date": "2025-01-01", "check_date:opening_hours": "2025-01-01", "cuisine": "coffee_shop", "name": "Fleet Coffee", "opening_hours": "Mo-Fr 08:00-15:00"}}, {"type": "node", "id": 3849782238, "lat": 30.3244191, "lon": -97.7437468}, {"type": "node", "id": 3849782240, "lat": 30.3244243, "lon": -97.7436493}, {"type": "node", "id": 3849782264, "lat": 30.3244783, "lon": -97.7437444}, {"type": "node", "id": 3849782265, "lat": 30.324478, "lon": -97.743751}, {"type": "node", "id": 3849782284, "lat": 30.3245141, "lon": -97.7436557}, {"type": "node", "id": 3849782285, "lat": 30.3245164, "lon": -97.7436122}, {"type": "node", "id": 3849782291, "lat": 30.3245793, "lon": -97.7436167}, {"type": "node", "id": 3849782292, "lat": 30.3245791, "lon": -97.7436209}, {"type": "node", "id": 3849782299, "lat": 30.3245966, "lon": -97.7437528}, {"type": "node", "id": 3849782300, "lat": 30.3245998, "lon": -97.743693}, {"type": "node", "id": 3849782301, "lat": 30.3246127, "lon": -97.7436939}, {"type": "node", "id": 3849782302, "lat": 30.3246164, "lon": -97.7436236}, {"type": "node", "id": 3850018815, "lat": 30.2780221, "lon": -97.7443627}, {"type": "node", "id": 3850018836, "lat": 30.278071, "lon": -97.7445349}, {"type": "node", "id": 3850018920, "lat": 30.2781022, "lon": -97.7443323}, {"type": "node", "id": 3850018937, "lat": 30.2781512, "lon": -97.7445042}, {"type": "node", "id": 3852094467, "lat": 30.315165, "lon": -97.741972}, {"type": "node", "id": 3852094503, "lat": 30.3152, "lon": -97.742042}, {"type": "node", "id": 3852094565, "lat": 30.315272, "lon": -97.7419}, {"type": "node", "id": 3852094592, "lat": 30.315307, "lon": -97.74197}, {"type": "node", "id": 3852274242, "lat": 30.302458, "lon": -97.738502}, {"type": "node", "id": 3852274255, "lat": 30.302485, "lon": -97.738572}, {"type": "node", "id": 3852274361, "lat": 30.302491, "lon": -97.738568}, {"type": "node", "id": 3852274370, "lat": 30.302511, "lon": -97.738625}, {"type": "node", "id": 3852274374, "lat": 30.302516, "lon": -97.738634}, {"type": "node", "id": 3852274376, "lat": 30.302518, "lon": -97.738444}, {"type": "node", "id": 3852274380, "lat": 30.30252, "lon": -97.73862}, {"type": "node", "id": 3852274382, "lat": 30.302524, "lon": -97.738628}, {"type": "node", "id": 3852274385, "lat": 30.302525, "lon": -97.738458}, {"type": "node", "id": 3852274397, "lat": 30.302541, "lon": -97.738687}, {"type": "node", "id": 3852274399, "lat": 30.302545, "lon": -97.738693}, {"type": "node", "id": 3852274401, "lat": 30.302549, "lon": -97.738682}, {"type": "node", "id": 3852274403, "lat": 30.302552, "lon": -97.738689}, {"type": "node", "id": 3852274405, "lat": 30.302554, "lon": -97.738421}, {"type": "node", "id": 3852274408, "lat": 30.302561, "lon": -97.738434}, {"type": "node", "id": 3852274413, "lat": 30.30257, "lon": -97.738745}, {"type": "node", "id": 3852274416, "lat": 30.302578, "lon": -97.73874}, {"type": "node", "id": 3852274418, "lat": 30.302583, "lon": -97.738751}, {"type": "node", "id": 3852274439, "lat": 30.302615, "lon": -97.7384}, {"type": "node", "id": 3852274448, "lat": 30.302628, "lon": -97.738428}, {"type": "node", "id": 3852274600, "lat": 30.302737, "lon": -97.738651}, {"type": "node", "id": 3853625635, "lat": 30.444763, "lon": -97.743753}, {"type": "node", "id": 3853625653, "lat": 30.444799, "lon": -97.743636}, {"type": "node", "id": 3853625657, "lat": 30.444805, "lon": -97.743639}, {"type": "node", "id": 3853625660, "lat": 30.444812, "lon": -97.743601}, {"type": "node", "id": 3853625661, "lat": 30.444819, "lon": -97.743605}, {"type": "node", "id": 3853625666, "lat": 30.444829, "lon": -97.743786}, {"type": "node", "id": 3853625671, "lat": 30.444835, "lon": -97.743562}, {"type": "node", "id": 3853625719, "lat": 30.4449, "lon": -97.743594}, {"type": "node", "id": 3856422115, "lat": 30.247346, "lon": -97.772649}, {"type": "node", "id": 3856422125, "lat": 30.247371, "lon": -97.77256}, {"type": "node", "id": 3856422137, "lat": 30.247434, "lon": -97.772584}, {"type": "node", "id": 3856422138, "lat": 30.247438, "lon": -97.772571}, {"type": "node", "id": 3856422142, "lat": 30.247468, "lon": -97.772695}, {"type": "node", "id": 3856422143, "lat": 30.247476, "lon": -97.772666}, {"type": "node", "id": 3856422144, "lat": 30.247487, "lon": -97.77267}, {"type": "node", "id": 3856422145, "lat": 30.247492, "lon": -97.772654}, {"type": "node", "id": 3856422147, "lat": 30.247503, "lon": -97.772658}, {"type": "node", "id": 3856422148, "lat": 30.247519, "lon": -97.772602}, {"type": "node", "id": 3856446569, "lat": 30.24159, "lon": -97.726853}, {"type": "node", "id": 3856446571, "lat": 30.241639, "lon": -97.726768}, {"type": "node", "id": 3856446573, "lat": 30.241654, "lon": -97.726931}, {"type": "node", "id": 3856446576, "lat": 30.241663, "lon": -97.726909}, {"type": "node", "id": 3856446593, "lat": 30.241751, "lon": -97.72699}, {"type": "node", "id": 3856446594, "lat": 30.241756, "lon": -97.726981}, {"type": "node", "id": 3856446596, "lat": 30.241761, "lon": -97.726984}, {"type": "node", "id": 3856446604, "lat": 30.241793, "lon": -97.726897}, {"type": "node", "id": 3856446605, "lat": 30.241798, "lon": -97.726888}, {"type": "node", "id": 3856446606, "lat": 30.241799, "lon": -97.726901}, {"type": "node", "id": 3856493856, "lat": 30.248104, "lon": -97.769321}, {"type": "node", "id": 3856493866, "lat": 30.248121, "lon": -97.769261}, {"type": "node", "id": 3856493890, "lat": 30.248155, "lon": -97.769385}, {"type": "node", "id": 3856493897, "lat": 30.248167, "lon": -97.769345}, {"type": "node", "id": 3856493918, "lat": 30.248188, "lon": -97.769287}, {"type": "node", "id": 3856493923, "lat": 30.248195, "lon": -97.769266}, {"type": "node", "id": 3856493924, "lat": 30.248198, "lon": -97.769267}, {"type": "node", "id": 3856494146, "lat": 30.248416, "lon": -97.769485}, {"type": "node", "id": 3856494160, "lat": 30.248451, "lon": -97.769364}, {"type": "node", "id": 3856494441, "lat": 30.248809, "lon": -97.769516}, {"type": "node", "id": 3856494473, "lat": 30.248834, "lon": -97.769424}, {"type": "node", "id": 3856494494, "lat": 30.24885, "lon": -97.76943}, {"type": "node", "id": 3856494615, "lat": 30.24895, "lon": -97.769466}, {"type": "node", "id": 3856494619, "lat": 30.248954, "lon": -97.769453}, {"type": "node", "id": 3856494670, "lat": 30.249005, "lon": -97.769588}, {"type": "node", "id": 3856494696, "lat": 30.249034, "lon": -97.769482}, {"type": "node", "id": 3856643356, "lat": 30.2188189, "lon": -97.7957371}, {"type": "node", "id": 3856643369, "lat": 30.218832, "lon": -97.7957288}, {"type": "node", "id": 3856643388, "lat": 30.2188492, "lon": -97.7958013}, {"type": "node", "id": 3856643517, "lat": 30.2189854, "lon": -97.7957153}, {"type": "node", "id": 3856650616, "lat": 30.217993, "lon": -97.79637, "tags": {"addr:housenumber": "5320", "addr:postcode": "78745", "addr:street": "Manchaca Road", "amenity": "cafe", "cuisine": "coffee_shop", "name": "Captain quackenbush's coffeehouse"}}, {"type": "node", "id": 3856650618, "lat": 30.217862, "lon": -97.796455, "tags": {"addr:housenumber": "5324", "addr:postcode": "78745", "addr:street": "Manchaca Road", "amenity": "cafe", "cuisine": "coffee_shop", "name": "Captain Quakenbush's Coffeehouse"}}, {"type": "node", "id": 3856650619, "lat": 30.217802, "lon": -97.796492, "tags": {"addr:housenumber": "5326", "addr:postcode": "78745", "addr:street": "Manchaca Road", "amenity": "cafe", "name": "Lazydaze"}}, {"type": "node", "id": 3856650620, "lat": 30.2178088, "lon": -97.796552, "tags": {"addr:housenumber": "5328", "addr:postcode": "78745", "addr:street": "Manchaca Road", "amenity": "cafe", "name": "lazydazy"}}, {"type": "node", "id": 3856820844, "lat": 30.30708, "lon": -97.927267}, {"type": "node", "id": 3856820958, "lat": 30.307089, "lon": -97.927291}, {"type": "node", "id": 3856820962, "lat": 30.307093, "lon": -97.927272}, {"type": "node", "id": 3856820975, "lat": 30.307103, "lon": -97.927173}, {"type": "node", "id": 3856821281, "lat": 30.307164, "lon": -97.927193}, {"type": "node", "id": 3856821286, "lat": 30.307168, "lon": -97.927179}, {"type": "node", "id": 3856821466, "lat": 30.307238, "lon": -97.92734}, {"type": "node", "id": 3856821490, "lat": 30.307258, "lon": -97.927209}, {"type": "node", "id": 3856821504, "lat": 30.30727, "lon": -97.927213}, {"type": "node", "id": 3857657364, "lat": 30.2768019, "lon": -97.7519222}, {"type": "node", "id": 3857657408, "lat": 30.276874, "lon": -97.7518892}, {"type": "node", "id": 3857657574, "lat": 30.2769375, "lon": -97.7520755}, {"type": "node", "id": 3857662313, "lat": 30.2794542, "lon": -97.759382}, {"type": "node", "id": 3857662314, "lat": 30.2794576, "lon": -97.7594123}, {"type": "node", "id": 3857662318, "lat": 30.2794656, "lon": -97.7594076}, {"type": "node", "id": 3857662328, "lat": 30.2794957, "lon": -97.7594984}, {"type": "node", "id": 3857662336, "lat": 30.2795321, "lon": -97.7593358}, {"type": "node", "id": 3857662337, "lat": 30.2795357, "lon": -97.7594707}, {"type": "node", "id": 3857662338, "lat": 30.2795371, "lon": -97.7594738}, {"type": "node", "id": 3857662347, "lat": 30.2795517, "lon": -97.7593799}, {"type": "node", "id": 3857662349, "lat": 30.2795558, "lon": -97.7593774}, {"type": "node", "id": 3857662355, "lat": 30.279573, "lon": -97.7594282}, {"type": "node", "id": 3857662659, "lat": 30.2795772, "lon": -97.7594257}, {"type": "node", "id": 3857662660, "lat": 30.2795802, "lon": -97.7594443}, {"type": "node", "id": 3859164351, "lat": 30.4188444, "lon": -97.7026763}, {"type": "node", "id": 3859974450, "lat": 30.279812, "lon": -97.806113}, {"type": "node", "id": 3859974471, "lat": 30.279833, "lon": -97.806151}, {"type": "node", "id": 3859974476, "lat": 30.27984, "lon": -97.806142}, {"type": "node", "id": 3859974491, "lat": 30.279863, "lon": -97.806182}, {"type": "node", "id": 3859974497, "lat": 30.27987, "lon": -97.806172}, {"type": "node", "id": 3859974512, "lat": 30.279888, "lon": -97.806005}, {"type": "node", "id": 3859974517, "lat": 30.279892, "lon": -97.806009}, {"type": "node", "id": 3859974522, "lat": 30.279895, "lon": -97.806197}, {"type": "node", "id": 3859974578, "lat": 30.279949, "lon": -97.805926}, {"type": "node", "id": 3859974594, "lat": 30.279969, "lon": -97.805946}, {"type": "node", "id": 3859974634, "lat": 30.279996, "lon": -97.805912}, {"type": "node", "id": 3859974641, "lat": 30.280004, "lon": -97.80592}, {"type": "node", "id": 3859974656, "lat": 30.280025, "lon": -97.806003}, {"type": "node", "id": 3859974664, "lat": 30.280034, "lon": -97.805881}, {"type": "node", "id": 3859974667, "lat": 30.280036, "lon": -97.806014}, {"type": "node", "id": 3859974674, "lat": 30.280045, "lon": -97.805868}, {"type": "node", "id": 3859974713, "lat": 30.280092, "lon": -97.805916}, {"type": "node", "id": 3860041713, "lat": 30.234158, "lon": -97.757599}, {"type": "node", "id": 3860041733, "lat": 30.23418, "lon": -97.757576}, {"type": "node", "id": 3860041734, "lat": 30.234183, "lon": -97.757582}, {"type": "node", "id": 3860041754, "lat": 30.234206, "lon": -97.757691}, {"type": "node", "id": 3860041776, "lat": 30.234233, "lon": -97.75754}, {"type": "node", "id": 3860041778, "lat": 30.234237, "lon": -97.757547}, {"type": "node", "id": 3860041800, "lat": 30.234267, "lon": -97.757526}, {"type": "node", "id": 3860041821, "lat": 30.234314, "lon": -97.757618}, {"type": "node", "id": 3863362106, "lat": 30.332045, "lon": -97.868979}, {"type": "node", "id": 3863362107, "lat": 30.332079, "lon": -97.868912}, {"type": "node", "id": 3863362111, "lat": 30.33214, "lon": -97.869043}, {"type": "node", "id": 3863362112, "lat": 30.332174, "lon": -97.868976}, {"type": "node", "id": 3866035810, "lat": 30.2551623, "lon": -97.7616428}, {"type": "node", "id": 3866035836, "lat": 30.2552233, "lon": -97.7617848}, {"type": "node", "id": 3866036073, "lat": 30.2553086, "lon": -97.7617357}, {"type": "node", "id": 3866302126, "lat": 30.239822, "lon": -97.753088}, {"type": "node", "id": 3866302127, "lat": 30.239835, "lon": -97.753067}, {"type": "node", "id": 3866302128, "lat": 30.239839, "lon": -97.753078}, {"type": "node", "id": 3866302129, "lat": 30.239907, "lon": -97.753023}, {"type": "node", "id": 3866302130, "lat": 30.239908, "lon": -97.753026}, {"type": "node", "id": 3866302131, "lat": 30.239913, "lon": -97.753295}, {"type": "node", "id": 3866302132, "lat": 30.239966, "lon": -97.753258}, {"type": "node", "id": 3866302133, "lat": 30.239968, "lon": -97.753262}, {"type": "node", "id": 3866302135, "lat": 30.239983, "lon": -97.753219}, {"type": "node", "id": 3866302136, "lat": 30.239993, "lon": -97.753213}, {"type": "node", "id": 3866302137, "lat": 30.239993, "lon": -97.753242}, {"type": "node", "id": 3866311611, "lat": 30.242668, "lon": -97.752484}, {"type": "node", "id": 3866311621, "lat": 30.242676, "lon": -97.752463}, {"type": "node", "id": 3866311628, "lat": 30.242682, "lon": -97.752476}, {"type": "node", "id": 3866311667, "lat": 30.242745, "lon": -97.752421}, {"type": "node", "id": 3866311674, "lat": 30.242754, "lon": -97.752673}, {"type": "node", "id": 3866311738, "lat": 30.242837, "lon": -97.752622}, {"type": "node", "id": 3871327039, "lat": 30.207864, "lon": -97.815483}, {"type": "node", "id": 3871327040, "lat": 30.207891, "lon": -97.815538}, {"type": "node", "id": 3871327041, "lat": 30.2079, "lon": -97.815353}, {"type": "node", "id": 3871327042, "lat": 30.20792, "lon": -97.815392}, {"type": "node", "id": 3871327043, "lat": 30.207939, "lon": -97.815506}, {"type": "node", "id": 3871327044, "lat": 30.207951, "lon": -97.81532}, {"type": "node", "id": 3871327045, "lat": 30.207955, "lon": -97.815327}, {"type": "node", "id": 3871327046, "lat": 30.207999, "lon": -97.815298}, {"type": "node", "id": 3871327048, "lat": 30.208024, "lon": -97.815345}, {"type": "node", "id": 3871505388, "lat": 30.233614, "lon": -97.742287}, {"type": "node", "id": 3871505390, "lat": 30.233615, "lon": -97.742321}, {"type": "node", "id": 3871505394, "lat": 30.233623, "lon": -97.742318}, {"type": "node", "id": 3871505395, "lat": 30.233624, "lon": -97.742354}, {"type": "node", "id": 3871505399, "lat": 30.233632, "lon": -97.742351}, {"type": "node", "id": 3871505420, "lat": 30.233659, "lon": -97.742448}, {"type": "node", "id": 3871505434, "lat": 30.233676, "lon": -97.742265}, {"type": "node", "id": 3871505441, "lat": 30.233692, "lon": -97.742472}, {"type": "node", "id": 3871505468, "lat": 30.23373, "lon": -97.742458}, {"type": "node", "id": 3871927209, "lat": 30.207816, "lon": -97.715454}, {"type": "node", "id": 3871927215, "lat": 30.207845, "lon": -97.715525}, {"type": "node", "id": 3871927220, "lat": 30.207864, "lon": -97.715514}, {"type": "node", "id": 3871927227, "lat": 30.207898, "lon": -97.715597}, {"type": "node", "id": 3871927230, "lat": 30.207925, "lon": -97.715394}, {"type": "node", "id": 3871927232, "lat": 30.207929, "lon": -97.715421}, {"type": "node", "id": 3871927234, "lat": 30.207935, "lon": -97.715418}, {"type": "node", "id": 3871927235, "lat": 30.207936, "lon": -97.715576}, {"type": "node", "id": 3871927236, "lat": 30.20794, "lon": -97.715449}, {"type": "node", "id": 3871927237, "lat": 30.207945, "lon": -97.715429}, {"type": "node", "id": 3871927239, "lat": 30.20795, "lon": -97.715443}, {"type": "node", "id": 3871927240, "lat": 30.207951, "lon": -97.715611}, {"type": "node", "id": 3871927245, "lat": 30.207999, "lon": -97.715584}, {"type": "node", "id": 3871927246, "lat": 30.208001, "lon": -97.715398}, {"type": "node", "id": 3871927247, "lat": 30.208009, "lon": -97.715608}, {"type": "node", "id": 3871927248, "lat": 30.20801, "lon": -97.715477}, {"type": "node", "id": 3871927252, "lat": 30.208029, "lon": -97.715467}, {"type": "node", "id": 3871927254, "lat": 30.20803, "lon": -97.715525}, {"type": "node", "id": 3871927256, "lat": 30.208047, "lon": -97.715516}, {"type": "node", "id": 3871927261, "lat": 30.208071, "lon": -97.715574}, {"type": "node", "id": 3873540030, "lat": 30.1652803, "lon": -97.8295088}, {"type": "node", "id": 3873540035, "lat": 30.1652943, "lon": -97.8295398}, {"type": "node", "id": 3873540040, "lat": 30.1653023, "lon": -97.8295238}, {"type": "node", "id": 3873540055, "lat": 30.1653113, "lon": -97.8294498}, {"type": "node", "id": 3873540180, "lat": 30.1653323, "lon": -97.8294648}, {"type": "node", "id": 3873540231, "lat": 30.1653913, "lon": -97.8296698}, {"type": "node", "id": 3873540241, "lat": 30.1653993, "lon": -97.8293398}, {"type": "node", "id": 3873540255, "lat": 30.1654153, "lon": -97.8296248}, {"type": "node", "id": 3873540258, "lat": 30.1654163, "lon": -97.8294968}, {"type": "node", "id": 3873540287, "lat": 30.1654373, "lon": -97.8294568}, {"type": "node", "id": 3873540291, "lat": 30.1654393, "lon": -97.8297038}, {"type": "node", "id": 3873540307, "lat": 30.1654553, "lon": -97.8294688}, {"type": "node", "id": 3873540312, "lat": 30.1654633, "lon": -97.8296578}, {"type": "node", "id": 3873540336, "lat": 30.1654843, "lon": -97.8294128}, {"type": "node", "id": 3873540337, "lat": 30.1654843, "lon": -97.8296718}, {"type": "node", "id": 3873540343, "lat": 30.1654893, "lon": -97.8294038}, {"type": "node", "id": 3873540374, "lat": 30.1655333, "lon": -97.8295798}, {"type": "node", "id": 3909530103, "lat": 30.251009, "lon": -97.7541798, "tags": {"amenity": "cafe", "name": "Holy cacao"}}, {"type": "node", "id": 3952991242, "lat": 30.2896999, "lon": -97.7284176, "tags": {"amenity": "cafe", "name": "Red River Cafe"}}, {"type": "node", "id": 4011464284, "lat": 30.3593671, "lon": -97.7346731, "tags": {"addr:city": "Austin", "addr:housenumber": "2700", "addr:postcode": "78757", "addr:state": "TX", "addr:street": "West Anderson Lane", "amenity": "cafe", "check_date": "2025-02-14", "cuisine": "coffee_shop", "internet_access": "yes", "name": "Epoch Coffee", "website": "https://epochcoffee.com/"}}, {"type": "node", "id": 4388701189, "lat": 30.4130776, "lon": -97.6877881, "tags": {"addr:city": "Austin", "addr:housenumber": "1700", "addr:postcode": "78727", "addr:state": "TX", "addr:street": "West Parmer Lane", "addr:unit": "210", "air_conditioning": "yes", "amenity": "cafe", "branch": "Scofield Farms", "check_date": "2023-10-01", "cuisine": "bubble_tea", "description": "Coffee & Tea, Bubble Tea, Juice Bars & Smoothies", "email": "scofieldfarms.austin.tx@teapiocalounge.com", "name": "Teapioca Lounge", "opening_hours": "10:00-21:00", "phone": "+1-512-833-7888", "website": "https://www.teapiocalounge.com/", "wheelchair": "yes"}}, {"type": "node", "id": 4484663014, "lat": 30.4025845, "lon": -97.7203236, "tags": {"amenity": "cafe", "name": "EBar", "opening_hours": "Mo-Sa 09:30-20:00; Su 11:00-18:00"}}, {"type": "node", "id": 4486035546, "lat": 30.4007259, "lon": -97.7268482, "tags": {"addr:city": "Austin", "addr:housenumber": "3400", "addr:postcode": "78758", "addr:state": "TX", "addr:street": "Esperanza Crossing", "air_conditioning": "yes", "amenity": "cafe", "name": "The Yard Milkshake Bar", "opening_hours": "Mo-Su 12:00-22:00", "outdoor_seating": "yes", "website": "https://www.theyardmilkshakebar.com/", "wheelchair": "yes"}}, {"type": "node", "id": 4692486090, "lat": 30.3016121, "lon": -97.6999083, "tags": {"addr:city": "Austin", "addr:housenumber": "1801", "addr:postcode": "78723", "addr:state": "TX", "addr:street": "East 51st Street", "addr:unit": "A-190", "amenity": "cafe", "branch": "Berkman & 51st", "brand": "Starbucks", "brand:wikidata": "Q37158", "cuisine": "coffee_shop", "delivery": "yes", "name": "Starbucks", "name:en": "Starbucks", "official_name": "Starbucks Coffee", "opening_hours": "Mo-Su 05:30-22:00", "outdoor_seating": "yes", "phone": "+1 512-480-0684", "takeaway": "yes", "website": "https://www.starbucks.com/store-locator/store/1007741/berkman-51st-1801-e-51st-street-bldg-a-austin-tx-787233434-us", "wheelchair": "yes"}}, {"type": "node", "id": 4747353330, "lat": 30.1857853, "lon": -97.8736475, "tags": {"amenity": "cafe", "level": "0", "name": "Wildflower Cafe", "outdoor_seating": "yes"}}, {"type": "node", "id": 4906380121, "lat": 30.2674422, "lon": -97.742689, "tags": {"addr:housenumber": "503", "addr:postcode": "78701", "addr:street": "Colorado Street", "amenity": "cafe", "cuisine": "breakfast;coffee_shop", "diet:vegetarian": "yes", "name": "My Name Is Joe Coffee", "opening_hours": "Mo-Fr 07:00-15:00", "website": "http://mynameisjoe.com"}}, {"type": "node", "id": 4906380122, "lat": 30.2318432, "lon": -97.7356141, "tags": {"addr:postcode": "78741", "amenity": "cafe", "cuisine": "coffee_shop;breakfast;crepe", "name": "Caf\u00e9 Cr\u00e8me", "opening_hours": "Mo-Fr 07:00-18:00; Sa-Su 08:00-18:00", "phone": "+1-512-710-9473", "website": "https://cafecremeaustin.com/"}}, {"type": "node", "id": 4933514974, "lat": 30.2020949, "lon": -97.6700843, "tags": {"amenity": "cafe", "check_date": "2025-02-16", "name": "Ruta Maya", "operator": "Paradies Lagard\u00e8re", "operator:wikidata": "Q7756054"}}, {"type": "node", "id": 4933514976, "lat": 30.202292, "lon": -97.6700253, "tags": {"amenity": "cafe", "check_date": "2025-02-16", "diet:vegetarian": "yes", "indoor_seating": "yes", "level": "1", "name": "Annie's", "opening_hours": "Mo-Su 04:00-19:00", "outdoor_seating": "no"}}, {"type": "node", "id": 5266058903, "lat": 30.4053959, "lon": -97.8512475, "tags": {"addr:city": "Austin", "addr:housenumber": "11220", "addr:postcode": "78737", "addr:state": "TX", "addr:street": "FM 2222", "amenity": "cafe", "branch": "Target Four Points 1953", "brand": "Starbucks", "brand:wikidata": "Q37158", "cuisine": "coffee_shop", "name": "Starbucks", "official_name": "Starbucks Coffee", "phone": "+1 512-651-0086", "ref": "9629", "takeaway": "yes", "website": "https://www.starbucks.com/store-locator/store/9629/target-four-points-1953-11220-fm-2222-austin-tx-787373506-us"}}, {"type": "node", "id": 5303724616, "lat": 30.1828581, "lon": -97.8469949}, {"type": "node", "id": 5303724617, "lat": 30.18282, "lon": -97.846914}, {"type": "node", "id": 5303724618, "lat": 30.1828522, "lon": -97.8468937}, {"type": "node", "id": 5303724619, "lat": 30.1828904, "lon": -97.8469744}, {"type": "node", "id": 5329733929, "lat": 30.3880226, "lon": -97.8839212}, {"type": "node", "id": 5330357249, "lat": 30.3386884, "lon": -97.7187526, "tags": {"addr:city": "Austin", "addr:housenumber": "7020", "addr:postcode": "78752", "addr:state": "TX", "addr:street": "Easy Wind Drive", "addr:unit": "140", "air_conditioning": "yes", "amenity": "cafe", "name": "Fat Cats: Organic Coffee & Desserts", "opening_hours": "We-Su 09:00-15:00; Mo,Tu off", "website": "https://www.fatcatsaustin.com"}}, {"type": "node", "id": 5339602851, "lat": 30.4705954, "lon": -97.8069306, "tags": {"addr:city": "Cedar Park", "addr:housenumber": "11200", "addr:postcode": "78613", "addr:state": "TX", "addr:street": "Lakeline Mall Drive", "amenity": "cafe", "branch": "Lakeline Mall", "brand": "Starbucks", "brand:wikidata": "Q37158", "cuisine": "coffee_shop", "name": "Starbucks", "official_name": "Starbucks Coffee", "phone": "+1 512-902-0175", "ref": "1015126", "takeaway": "yes", "website": "https://www.starbucks.com/store-locator/store/1015126/lakeline-mall-11200-lakeline-mall-dr-cedar-park-tx-78613-us"}}, {"type": "node", "id": 5436383521, "lat": 30.4378447, "lon": -97.6980347, "tags": {"amenity": "cafe", "cuisine": "coffee_shop", "internet_access": "wlan", "name": "Johnny Beans"}}, {"type": "node", "id": 5465673506, "lat": 30.2923945, "lon": -97.8251229, "tags": {"addr:city": "Austin", "addr:housenumber": "701", "addr:postcode": "78746", "addr:state": "TX", "addr:street": "South Capitol of Texas Highway, Village at Westlake", "addr:unit": "B-200", "amenity": "cafe", "branch": "360 & Bee Caves", "brand": "Starbucks", "brand:wikidata": "Q37158", "cuisine": "coffee_shop", "name": "Starbucks", "official_name": "Starbucks Coffee", "phone": "+1 512-347-0033", "ref": "116570", "takeaway": "yes", "website": "https://www.starbucks.com/store-locator/store/116570/360-bee-caves-701-south-capitol-of-texas-highway-b-200-austin-tx"}}, {"type": "node", "id": 5488522987, "lat": 30.3886025, "lon": -97.6502811, "tags": {"addr:city": "Austin", "addr:housenumber": "1606", "addr:postcode": "78753", "addr:state": "TX", "addr:street": "East Parmer Lane", "addr:unit": "100", "amenity": "cafe", "branch": "Parmer & Dessau", "brand": "Starbucks", "brand:wikidata": "Q37158", "cuisine": "coffee_shop", "name": "Starbucks", "official_name": "Starbucks Coffee", "phone": "+1 512-339-6496", "ref": "1019761", "takeaway": "yes", "website": "https://www.starbucks.com/store-locator/store/1019761/parmer-dessau-1606-e-parmer-lane-suite-100-austin-tx-787537145-u"}}, {"type": "node", "id": 5519815700, "lat": 30.2391904, "lon": -97.7890419}, {"type": "node", "id": 5519815701, "lat": 30.2391487, "lon": -97.7889963}, {"type": "node", "id": 5519815702, "lat": 30.2391788, "lon": -97.788964}, {"type": "node", "id": 5519815703, "lat": 30.2391394, "lon": -97.788913}, {"type": "node", "id": 5519815704, "lat": 30.23926, "lon": -97.7887546}, {"type": "node", "id": 5519815705, "lat": 30.239318, "lon": -97.7888163}, {"type": "node", "id": 5519815706, "lat": 30.2393018, "lon": -97.7888432}, {"type": "node", "id": 5519815707, "lat": 30.2393227, "lon": -97.788862}, {"type": "node", "id": 5519815708, "lat": 30.2392786, "lon": -97.7889103}, {"type": "node", "id": 5538321951, "lat": 30.2885673, "lon": -97.7420585, "tags": {"addr:city": "Austin", "addr:housenumber": "2421", "addr:postcode": "78705", "addr:state": "TX", "addr:street": "San Antonio Street", "amenity": "cafe", "cuisine": "coffee_shop", "description": "Local coffee shop with gourmet bakeries.", "internet_access": "wlan", "name": "Lucky Lab Coffee", "opening_hours": "Mo-Fr 06:30-17:00; Sa,Su 07:00-17:00", "outdoor_seating": "yes", "website": "https://www.luckylabcoffee.com/"}}, {"type": "node", "id": 5553104923, "lat": 30.312715, "lon": -97.7385289, "tags": {"addr:city": "Austin", "addr:country": "US", "addr:housenumber": "4400", "addr:postcode": "78756", "addr:state": "TX", "addr:street": "North Lamar Boulevard", "addr:unit": "104", "amenity": "cafe", "branch": "45th & North Lamar", "brand": "Starbucks", "brand:wikidata": "Q37158", "cuisine": "coffee_shop", "name": "Starbucks", "official_name": "Starbucks Coffee", "phone": "+1 512-374-9784", "takeaway": "yes", "website": "https://www.starbucks.com/store-locator/store/16778/45th-n-lamar-4400-n-lamar-ste-104-austin-tx-787563401-us"}}, {"type": "node", "id": 5571027694, "lat": 30.2835675, "lon": -97.7416851, "tags": {"addr:city": "Austin", "addr:housenumber": "2021", "addr:postcode": "78705", "addr:state": "TX", "addr:street": "Guadalupe Street", "amenity": "cafe", "branch": "Target Austin UT Campus 3250", "brand": "Starbucks", "brand:wikidata": "Q37158", "cuisine": "coffee_shop", "name": "Starbucks", "official_name": "Starbucks Coffee", "phone": "+1 512-651-1262", "ref": "1020414", "takeaway": "yes", "website": "https://www.starbucks.com/store-locator/store/1020414/target-austin-ut-campus-3250-2021-guadalupe-st-austin-tx-78705-us"}}, {"type": "node", "id": 5571027695, "lat": 30.2854421, "lon": -97.7420095, "tags": {"amenity": "cafe", "cuisine": "coffee_shop", "name": "Caf\u00e9 Medici", "opening_hours": "Mo-Su 07:00-19:00", "wheelchair": "yes"}}, {"type": "node", "id": 5615816955, "lat": 30.2614363, "lon": -97.7211444, "tags": {"amenity": "cafe", "name": "Cuv\u00e9e Coffee", "website": "http://www.cuveecoffee.com/location/"}}, {"type": "node", "id": 5771559041, "lat": 30.266883, "lon": -97.719949, "tags": {"addr:city": "Austin", "addr:housenumber": "1111", "addr:postcode": "78702", "addr:state": "TX", "addr:street": "Chicon Street", "amenity": "cafe", "name": "Figure 8 Coffee Purveyors"}}, {"type": "node", "id": 5771770545, "lat": 30.2053557, "lon": -97.8063095, "tags": {"addr:city": "Austin", "addr:housenumber": "6711", "addr:postcode": "78745", "addr:state": "TX", "addr:street": "Manchaca Road", "amenity": "cafe", "name": "Summer Moon Coffee Bar", "opening_hours": "Mo-Fr 06:00-20:00, Sa-Su 08:00-20:00"}}, {"type": "node", "id": 5775290059, "lat": 30.4219383, "lon": -97.8460391}, {"type": "node", "id": 5775290060, "lat": 30.4216927, "lon": -97.8461337}, {"type": "node", "id": 5775290061, "lat": 30.4216308, "lon": -97.8459178}, {"type": "node", "id": 5775290062, "lat": 30.4218765, "lon": -97.8458231}, {"type": "node", "id": 5809504354, "lat": 30.3572945, "lon": -97.760577, "tags": {"amenity": "cafe", "cuisine": "coffee_shop", "internet_access": "wlan", "name": "Epoch Coffee"}}, {"type": "node", "id": 6039911717, "lat": 30.2712775, "lon": -97.7585251, "tags": {"amenity": "cafe", "bar": "yes", "name": "Better Half Coffee & Cocktails", "restaurant": "cafe"}}, {"type": "node", "id": 6072052585, "lat": 30.2613445, "lon": -97.7579964}, {"type": "node", "id": 6072052586, "lat": 30.2611283, "lon": -97.7580421}, {"type": "node", "id": 6072052587, "lat": 30.2611069, "lon": -97.757907}, {"type": "node", "id": 6072052588, "lat": 30.2613232, "lon": -97.7578613}, {"type": "node", "id": 6072235650, "lat": 30.2175689, "lon": -97.7966585, "tags": {"amenity": "cafe", "name": "Austin Java"}}, {"type": "node", "id": 6088701317, "lat": 30.260507, "lon": -97.7416741, "tags": {"amenity": "cafe", "check_date": "2024-04-04", "name": "The Perch", "opening_hours": "Mo-Su 08:00-20:00"}}, {"type": "node", "id": 6088759294, "lat": 30.2611369, "lon": -97.6978391, "tags": {"amenity": "cafe", "name": "Old Rail Coffee Pub"}}, {"type": "node", "id": 6186533585, "lat": 30.3774049, "lon": -97.6872721, "tags": {"addr:city": "Austin", "addr:housenumber": "10901", "addr:postcode": "78753", "addr:state": "TX", "addr:street": "North Lamar Boulevard", "amenity": "cafe", "brand": "Bambu", "brand:wikidata": "Q83437245", "cuisine": "vietnamese;bubble_tea", "email": "austin@drinkbambu.com", "internet_access": "wlan", "name": "Bambu", "outdoor_seating": "no", "phone": "+1-512-832-8886", "takeaway": "yes", "website": "https://www.drinkbambu.com/", "wheelchair": "yes"}}, {"type": "node", "id": 6187462596, "lat": 30.2684502, "lon": -97.7275658, "tags": {"addr:housenumber": "1203", "addr:street": "East 11th Street", "amenity": "cafe", "name": "Paperboy", "opening_hours": "Mo-We 08:00-14:00; Th-Su 08:00-15:00", "phone": "+1-512-910-3010", "website": "https://www.paperboyaustin.com"}}, {"type": "node", "id": 6231507087, "lat": 30.3187661, "lon": -97.7316951, "tags": {"amenity": "cafe", "cuisine": "coffee_shop", "internet_access": "wlan", "name": "SquareR\u00fct Kava Bar"}}, {"type": "node", "id": 6264985893, "lat": 30.2892778, "lon": -97.7393939, "tags": {"addr:city": "Austin", "addr:housenumber": "2503", "addr:postcode": "78712", "addr:state": "TX", "addr:street": "Whitis Avenue", "amenity": "cafe", "cuisine": "sandwich", "name": "Littlefield Patio Cafe", "outdoor_seating": "yes"}}, {"type": "node", "id": 6347912283, "lat": 30.4480848, "lon": -97.7917734}, {"type": "node", "id": 6347912284, "lat": 30.448136, "lon": -97.7916322}, {"type": "node", "id": 6347912785, "lat": 30.4480469, "lon": -97.7915887}, {"type": "node", "id": 6347912786, "lat": 30.448026, "lon": -97.7918089}, {"type": "node", "id": 6358021988, "lat": 30.3621042, "lon": -97.7177062, "tags": {"amenity": "cafe", "cuisine": "coffee_shop", "name": "Mr. Brew Coffee"}}, {"type": "node", "id": 6589921472, "lat": 30.4252916, "lon": -97.7167166, "tags": {"addr:city": "Austin", "addr:housenumber": "4101", "addr:postcode": "78727", "addr:state": "TX", "addr:street": "West Parmer Lane", "air_conditioning": "yes", "amenity": "cafe", "name": "Kolache Factory", "outdoor_seating": "yes", "website": "https://www.kolachefactory.com/"}}, {"type": "node", "id": 6589921477, "lat": 30.4249138, "lon": -97.7158878, "tags": {"addr:city": "Austin", "addr:housenumber": "4005", "addr:postcode": "78727", "addr:state": "TX", "addr:street": "West Parmer Lane", "addr:unit": "A", "air_conditioning": "yes", "amenity": "cafe", "bar": "no", "name": "It's a Grind Coffee House", "website": "https://www.itsagrind.com/"}}, {"type": "node", "id": 6735154773, "lat": 30.3880837, "lon": -97.709846, "tags": {"addr:city": "Austin", "addr:housenumber": "2007", "addr:postcode": "78758", "addr:state": "TX", "addr:street": "Kramer Lane", "addr:unit": "105", "amenity": "cafe", "cuisine": "breakfast;lunch;dessert;sandwich;salad", "diet:healthy": "yes", "diet:vegetarian": "yes", "name": "Kiefer's Cafe and Catering", "opening_hours": "Mo-Fr 06:30-14:00", "outdoor_seating": "yes", "phone": "+1-512-719-5550", "takeaway": "yes", "wheelchair": "yes"}}, {"type": "node", "id": 6795476806, "lat": 30.268145, "lon": -97.7474393}, {"type": "node", "id": 6795476807, "lat": 30.2680993, "lon": -97.747456}, {"type": "node", "id": 6795476808, "lat": 30.26814, "lon": -97.7475974}, {"type": "node", "id": 6795476809, "lat": 30.2681836, "lon": -97.7475812}, {"type": "node", "id": 6797146023, "lat": 30.2834028, "lon": -97.7413494, "tags": {"addr:city": "Austin", "addr:postcode": "78705", "addr:state": "TX", "addr:street": "Guadalupe Street", "amenity": "cafe", "brand": "Gong Cha", "brand:wikidata": "Q5581670", "brand:zh": "\u8ca2\u8336", "cuisine": "bubble_tea", "int_name": "Gong Cha", "level": "1", "name": "Gong Cha", "name:zh": "\u8ca2\u8336", "opening_hours": "Mo-Su 11:30-22:00", "outdoor_seating": "no", "takeaway": "yes"}}, {"type": "node", "id": 7024063231, "lat": 30.2668307, "lon": -97.7498946, "tags": {"addr:city": "Austin", "addr:housenumber": "607", "addr:postcode": "78701", "addr:state": "TX", "addr:street": "West 3rd Street", "addr:unit": "110", "amenity": "cafe", "cuisine": "coffee_shop", "name": "Intelligentsia"}}, {"type": "node", "id": 7053243779, "lat": 30.2760053, "lon": -97.8129349}, {"type": "node", "id": 7053243780, "lat": 30.275766, "lon": -97.8129987}, {"type": "node", "id": 7053243781, "lat": 30.2757849, "lon": -97.8129849}, {"type": "node", "id": 7093955642, "lat": 30.3047689, "lon": -97.9340988}, {"type": "node", "id": 7093955643, "lat": 30.304875, "lon": -97.9342443}, {"type": "node", "id": 7093977197, "lat": 30.2628481, "lon": -97.7142906, "tags": {"addr:city": "Austin", "addr:country": "US", "addr:housenumber": "2427", "addr:postcode": "78702", "addr:state": "TX", "addr:street": "Webberville Road", "amenity": "cafe", "brand": "Fleet Coffee", "brand:facebook": "https://www.facebook.com/FleetCoffeeCo", "brand:instagram": "https://www.instagram.com/fleetcoffeeco/", "brand:twitter": "https://x.com/fleetcoffeeco", "brand:website": "https://www.fleetcoffee.com/", "check_date": "2025-01-01", "check_date:opening_hours": "2025-01-01", "cuisine": "coffee_shop", "name": "Fleet Coffee", "opening_hours": "Mo-Su 07:00-13:00"}}, {"type": "node", "id": 7106354505, "lat": 30.4002151, "lon": -97.7232854, "tags": {"addr:city": "Austin", "addr:housenumber": "3210", "addr:postcode": "78758", "addr:state": "TX", "addr:street": "Esperanza Crossing", "addr:unit": "126", "air_conditioning": "yes", "amenity": "cafe", "brand": "Gong Cha", "brand:wikidata": "Q5581670", "brand:zh": "\u8ca2\u8336", "cuisine": "bubble_tea", "drink:bubble_tea": "yes", "int_name": "Gong Cha", "name": "Gong Cha", "name:zh": "\u8ca2\u8336", "opening_hours": "Su-Th 11:30-22:00; Fr,Sa 11:30-23:00", "phone": "+1-512-243-8151", "takeaway": "yes", "website": "https://www.gongchausa.com/", "wheelchair": "yes"}}, {"type": "node", "id": 7108302880, "lat": 30.4461154, "lon": -97.7862149, "tags": {"addr:city": "Austin", "addr:housenumber": "13343", "addr:postcode": "78750", "addr:state": "TX", "addr:street": "North US Highway 183", "amenity": "cafe", "brand": "Sharetea", "brand:wikidata": "Q64827032", "cuisine": "bubble_tea", "internet_access": "wlan", "internet_access:fee": "no", "name": "Sharetea", "name:en": "Sharetea", "name:zh": "\u6b47\u8173\u4ead", "outdoor_seating": "no", "takeaway": "yes", "wheelchair": "yes"}}, {"type": "node", "id": 7112908724, "lat": 30.2677245, "lon": -97.6938995, "tags": {"addr:suite": "1A", "amenity": "cafe", "cuisine": "coffee_shop", "name": "Caffe Medici"}}, {"type": "node", "id": 7112908728, "lat": 30.2673527, "lon": -97.6931123, "tags": {"addr:city": "Austin", "addr:country": "US", "addr:housenumber": "1023", "addr:postcode": "78721", "addr:state": "TX", "addr:street": "Springdale Road", "addr:unit": "7A", "amenity": "cafe", "email": "info@zhitea.com", "name": "Zhi Tea", "phone": "+1-512-220-3839", "shop": "tea", "website": "https://zhitea.com"}}, {"type": "node", "id": 7255870318, "lat": 30.3715088, "lon": -97.7245372, "tags": {"addr:city": "Austin", "addr:housenumber": "9012", "addr:postcode": "78758", "addr:state": "TX", "addr:street": "Research Boulevard", "addr:unit": "C1", "air_conditioning": "yes", "amenity": "cafe", "bar": "yes", "indoor_seating": "yes", "name": "Emerald Tavern Games and Cafe", "opening_hours": "Tu-Th 11:00-23:00; Fr 11:00-00:00; Sa 10:00-00:00; Su 10:00-21:00", "outdoor_seating": "yes", "phone": "+1-512-994-4649", "shop": "games", "website": "https://www.emeraldtaverngames.com/"}}, {"type": "node", "id": 7272598942, "lat": 30.4188075, "lon": -97.7027942}, {"type": "node", "id": 7841474468, "lat": 30.2793122, "lon": -97.687496, "tags": {"addr:city": "Austin", "addr:housenumber": "4136", "addr:postcode": "78721", "addr:state": "TX", "addr:street": "East 12th Street", "amenity": "cafe", "cuisine": "coffee_shop", "name": "Palamino Coffee", "opening_hours": "Mo-Su 08:00-14:00", "outdoor_seating": "yes"}}, {"type": "node", "id": 7857825863, "lat": 30.3365961, "lon": -97.717669, "tags": {"addr:city": "Austin", "addr:housenumber": "6929", "addr:postcode": "78752", "addr:state": "TX", "addr:street": "Airport Boulevard", "addr:unit": "197", "alt_name": "85C", "amenity": "cafe", "brand": "85\u00b0C", "brand:wikidata": "Q4644852", "cuisine": "coffee_shop;chinese", "name": "85\u00b0C", "opening_hours": "Mo-Su 09:00-19:00", "phone": "+1-512-436-8189", "takeaway": "yes", "website": "https://www.85cbakerycafe.com/"}}, {"type": "node", "id": 8090124769, "lat": 30.2652973, "lon": -97.7482013, "tags": {"amenity": "cafe", "cuisine": "coffee_shop;ice_cream", "name": "Yummi Joy", "outdoor_seating": "yes"}}, {"type": "node", "id": 8093097716, "lat": 30.276657, "lon": -97.8147556}, {"type": "node", "id": 8093121717, "lat": 30.2765311, "lon": -97.8147679}, {"type": "node", "id": 8093121718, "lat": 30.2764997, "lon": -97.8145933}, {"type": "node", "id": 8093121719, "lat": 30.2766399, "lon": -97.8145772}, {"type": "node", "id": 8119665866, "lat": 30.2825873, "lon": -97.7422258}, {"type": "node", "id": 8121330086, "lat": 30.2950159, "lon": -97.7364325, "tags": {"addr:city": "Austin", "addr:housenumber": "104", "addr:postcode": "78705", "addr:state": "TX", "addr:street": "East 31st Street", "amenity": "cafe", "name": "Square Peg Coffee", "opening_hours": "Mo-Sa 07:00-14:00"}}, {"type": "node", "id": 8195412272, "lat": 30.2621453, "lon": -97.7587291, "tags": {"addr:city": "Austin", "addr:housenumber": "400", "addr:postcode": "78704", "addr:state": "TX", "addr:street": "Josephine Street", "amenity": "cafe", "cuisine": "coffee_shop", "name": "Hot L Coffee", "operator": "Bunkhouse Hotels", "outdoor_seating": "yes", "phone": "+1-512-682-5300", "takeaway": "yes", "website": "https://carpenterhotel.com/", "wheelchair": "yes"}}, {"type": "node", "id": 8270822339, "lat": 30.3909728, "lon": -97.7222811}, {"type": "node", "id": 8270822340, "lat": 30.3908603, "lon": -97.7223211}, {"type": "node", "id": 8270822341, "lat": 30.3907627, "lon": -97.7222573}, {"type": "node", "id": 8270822342, "lat": 30.3909551, "lon": -97.7221889}, {"type": "node", "id": 8355560386, "lat": 30.4480213, "lon": -97.7916367}, {"type": "node", "id": 8355560387, "lat": 30.4480297, "lon": -97.791636}, {"type": "node", "id": 8355560388, "lat": 30.4480252, "lon": -97.7916718}, {"type": "node", "id": 8355560389, "lat": 30.4480118, "lon": -97.791666}, {"type": "node", "id": 8355560390, "lat": 30.4480317, "lon": -97.7918219}, {"type": "node", "id": 8355560391, "lat": 30.4480852, "lon": -97.7918213}, {"type": "node", "id": 8410344622, "lat": 30.1371925, "lon": -97.7957767, "tags": {"addr:city": "Austin", "addr:housenumber": "11215", "addr:postcode": "78747", "addr:state": "TX", "addr:street": "South Interstate 35", "addr:unit": "127", "amenity": "cafe", "cuisine": "breakfast;salad;sandwich;burger", "delivery": "no", "diet:vegan": "yes", "internet_access": "no", "name": "Opera Caf\u00e9 & Coffeehouse", "opening_hours": "Mo-Fr 07:00-15:00; Sa-Su 08:00-15:00", "outdoor_seating": "yes", "phone": "+1-512-296-2755", "takeaway": "no", "website": "http://www.operacafeaustin.com/", "wheelchair": "yes"}}, {"type": "node", "id": 8421705334, "lat": 30.2424096, "lon": -97.7275435, "tags": {"addr:city": "Austin", "addr:housenumber": "1920", "addr:postcode": "78741", "addr:state": "TX", "addr:street": "East Riverside Drive", "addr:unit": "E-100", "air_conditioning": "yes", "amenity": "cafe", "branch": "Riverside & Arena", "brand": "Starbucks", "brand:wikidata": "Q37158", "cuisine": "coffee_shop", "delivery": "yes", "internet_access": "wlan", "internet_access:fee": "customers", "name": "Starbucks", "official_name": "Starbucks Coffee", "opening_hours": "Su-Mo 08:00-18:00; Tu-Fr 05:00-21:00", "outdoor_seating": "yes", "phone": "+1 512-592-9727", "takeaway": "yes", "website": "https://www.starbucks.com/store-locator/store/1008672/riverside-arena-1920-east-riverside-dr-building-e-unit-100-austin-", "wheelchair": "yes"}}, {"type": "node", "id": 8515742178, "lat": 30.4769275, "lon": -97.8051037, "tags": {"addr:city": "Cedar Park", "addr:housenumber": "14028", "addr:postcode": "78717", "addr:state": "TX", "addr:street": "183A Toll Road", "addr:unit": "410", "amenity": "cafe", "branch": "183 & Lakeline", "brand": "Starbucks", "brand:wikidata": "Q37158", "cuisine": "coffee_shop", "delivery": "yes", "internet_access": "wlan", "name": "Starbucks", "official_name": "Starbucks Coffee", "opening_hours": "Mo-Su 05:00-20:00", "outdoor_seating": "yes", "phone": "+1 512-249-0820", "takeaway": "yes", "website": "https://www.starbucks.com/store-locator/store/1006054/183-lakeline-14028-research-blvd-suite-410-austin-tx-787175995-", "wheelchair": "yes"}}, {"type": "node", "id": 8534834263, "lat": 30.478409, "lon": -97.8004323, "tags": {"addr:city": "Austin", "addr:housenumber": "11301", "addr:postcode": "78717", "addr:state": "TX", "addr:street": "Lakeline Boulevard", "addr:unit": "220", "amenity": "cafe", "cuisine": "bubble_tea", "delivery": "no", "email": "parkline.Austin.tx@teapiocalounge.com", "name": "Teapioca", "opening_hours": "Mo-Su 10:00-22:00", "outdoor_seating": "yes", "phone": "+1-512-646-8970", "takeaway": "yes", "takeaway:covid19": "only", "website": "https://www.teapiocalounge.com/", "wheelchair": "yes"}}, {"type": "node", "id": 8535263950, "lat": 30.4794407, "lon": -97.7998915, "tags": {"addr:city": "Austin", "addr:housenumber": "11301", "addr:postcode": "78717", "addr:state": "TX", "addr:street": "Lakeline Boulevard", "addr:unit": "140", "air_conditioning": "yes", "alt_name": "85C", "amenity": "cafe", "brand": "85\u00b0C", "brand:wikidata": "Q4644852", "check_date:opening_hours": "2025-02-08", "cuisine": "coffee_shop;chinese", "name": "85\u00b0C", "opening_hours": "Mo-Su 09:00-20:00", "outdoor_seating": "no", "phone": "+1-512-614-1331", "safety:mask:covid19": "yes", "takeaway": "yes", "website": "https://www.85cbakerycafe.com/", "wheelchair": "yes"}}, {"type": "node", "id": 8558279977, "lat": 30.3009981, "lon": -97.7390514, "tags": {"addr:city": "Austin", "addr:housenumber": "3423", "addr:postcode": "78705", "addr:state": "TX", "addr:street": "Guadalupe Street", "amenity": "cafe", "cuisine": "coffee_shop", "name": "Civil Goat Coffee", "opening_hours": "Mo-Su 08:00-15:00", "outdoor_seating": "yes", "website": "https://www.civilgoat.com/"}}, {"type": "node", "id": 8558340193, "lat": 30.2768654, "lon": -97.7521084}, {"type": "node", "id": 8576374589, "lat": 30.4146693, "lon": -97.6722646}, {"type": "node", "id": 8576374591, "lat": 30.4147886, "lon": -97.6722446}, {"type": "node", "id": 8576374597, "lat": 30.4146392, "lon": -97.6720382}, {"type": "node", "id": 8576374599, "lat": 30.4147876, "lon": -97.672232}, {"type": "node", "id": 8576374604, "lat": 30.4148808, "lon": -97.672002}, {"type": "node", "id": 8780196260, "lat": 30.448023, "lon": -97.7918181}, {"type": "node", "id": 8780196261, "lat": 30.4479865, "lon": -97.7917918}, {"type": "node", "id": 8780196274, "lat": 30.4458141, "lon": -97.7900953}, {"type": "node", "id": 8780196275, "lat": 30.4458049, "lon": -97.7900869}, {"type": "node", "id": 8780196276, "lat": 30.4457819, "lon": -97.7901204}, {"type": "node", "id": 8780196277, "lat": 30.4457908, "lon": -97.7901286}, {"type": "node", "id": 8881107226, "lat": 30.3251243, "lon": -97.7148098, "tags": {"addr:city": "Austin", "addr:housenumber": "109", "addr:postcode": "78752", "addr:state": "TX", "addr:street": "Jacob Fontaine Lane", "addr:unit": "600", "air_conditioning": "yes", "amenity": "cafe", "check_date:opening_hours": "2025-01-25", "cuisine": "coffee_shop", "internet_access": "wlan", "name": "Bennu Coffee", "opening_hours": "Mo-Su 00:01-23:59", "payment:credit_cards": "yes", "payment:debit_cards": "yes", "phone": "+1-512-520-2525", "website": "https://bennucoffee.com/"}}, {"type": "node", "id": 8881195711, "lat": 30.3239159, "lon": -97.7137633, "tags": {"addr:city": "Austin", "addr:housenumber": "609", "addr:postcode": "78752", "addr:state": "TX", "addr:street": "Clayton Lane", "amenity": "cafe", "branch": "Highland", "cuisine": "bubble_tea", "name": "Feng Cha", "name:zh-Hans": "\u5949\u8336", "name:zh-Hant": "\u5949\u8336", "phone": "+1-512-551-3386", "website": "https://www.fengchausa.com/"}}, {"type": "node", "id": 8883842087, "lat": 30.260105, "lon": -97.7388864, "tags": {"addr:city": "Austin", "addr:housenumber": "605", "addr:postcode": "78701", "addr:state": "TX", "addr:street": "Davis Street", "amenity": "cafe", "name": "Caf\u00e9 605"}}, {"type": "node", "id": 8926674776, "lat": 30.2189551, "lon": -97.795651}, {"type": "node", "id": 8931050056, "lat": 30.2675657, "lon": -97.7521411, "tags": {"addr:city": "Austin", "addr:housenumber": "222", "addr:postcode": "78701", "addr:state": "TX", "addr:street": "West Avenue", "addr:unit": "120", "amenity": "cafe", "name": "Merit Coffee"}}, {"type": "node", "id": 8947061125, "lat": 30.2332793, "lon": -97.7919137, "tags": {"addr:city": "Austin", "addr:housenumber": "2300", "addr:postcode": "78704", "addr:state": "TX", "addr:street": "West Ben White Boulevard", "amenity": "cafe", "branch": "Target Austin SOUTH 96", "brand": "Starbucks", "brand:wikidata": "Q37158", "cuisine": "coffee_shop", "indoor_seating": "yes", "name": "Starbucks", "official_name": "Starbucks Coffee", "outdoor_seating": "no", "phone": "+1 512-445-2266", "ref": "1018595", "takeaway": "yes", "website": "https://www.starbucks.com/store-locator/store/1018595/target-austin-south-96-2300-w-ben-white-blvd-austin-tx-78704-us"}}, {"type": "node", "id": 8947079259, "lat": 30.1631013, "lon": -97.793505, "tags": {"addr:city": "Austin", "addr:housenumber": "9500", "addr:postcode": "78748", "addr:state": "TX", "addr:street": "South I-35, Feeder Road", "amenity": "cafe", "branch": "Target Austin Southpark 2288", "brand": "Starbucks", "brand:wikidata": "Q37158", "cuisine": "coffee_shop", "name": "Starbucks", "official_name": "Starbucks Coffee", "phone": "+1 572-687-0634", "ref": "6444", "takeaway": "yes", "website": "https://www.starbucks.com/store-locator/store/6444/target-austin-southpark-2288-9500-s-i-35-feeder-rd-bldg-g-austin-tx-787481752-u"}}, {"type": "node", "id": 8947129819, "lat": 30.2340388, "lon": -97.8284453, "tags": {"addr:city": "Austin", "addr:housenumber": "5300", "addr:postcode": "78749", "addr:state": "TX", "addr:street": "South Mopac Expressway", "amenity": "cafe", "branch": "Target Austin 1061", "brand": "Starbucks", "brand:wikidata": "Q37158", "cuisine": "coffee_shop", "name": "Starbucks", "official_name": "Starbucks Coffee", "opening_hours": "08:00-20:00", "outdoor_seating": "no", "phone": "+1 512-892-5535", "takeaway": "yes", "website": "https://www.starbucks.com/store-locator/store/9824/target-austin-1061-5300-s-mo-pac-expy-austin-tx-787491112-us"}}, {"type": "node", "id": 8999352176, "lat": 30.2681792, "lon": -97.7475644, "tags": {"entrance": "yes"}}, {"type": "node", "id": 8999352177, "lat": 30.2681358, "lon": -97.7475817, "tags": {"entrance": "yes"}}, {"type": "node", "id": 9001999513, "lat": 30.3348258, "lon": -97.719101, "tags": {"addr:city": "Austin", "addr:housenumber": "604", "addr:postcode": "78752", "addr:state": "TX", "addr:street": "Williams Street", "amenity": "cafe", "cuisine": "coffee_shop;coffee", "internet_access": "yes", "internet_access:fee": "no", "internet_access:ssid": "Garden Seventeen", "name": "604 Coffee", "opening_hours": "Mo-Fr 07:00-15:00, Sa-Su 07:00-18:00", "outdoor_seating": "yes", "phone": "+1 512-351-4004", "website": "https://604coffee.com"}}, {"type": "node", "id": 9306865278, "lat": 30.2381857, "lon": -97.756032}, {"type": "node", "id": 9306865281, "lat": 30.2382315, "lon": -97.756108}, {"type": "node", "id": 9306865282, "lat": 30.2381427, "lon": -97.7561795}, {"type": "node", "id": 9306865283, "lat": 30.2380962, "lon": -97.7561066}, {"type": "node", "id": 9341722410, "lat": 30.2024049, "lon": -97.6634448}, {"type": "node", "id": 9341722411, "lat": 30.2023656, "lon": -97.6634443}, {"type": "node", "id": 9341722412, "lat": 30.2023674, "lon": -97.6632671}, {"type": "node", "id": 9341722413, "lat": 30.2024082, "lon": -97.6632676}, {"type": "node", "id": 9341722414, "lat": 30.2024053, "lon": -97.6634017}, {"type": "node", "id": 9341722415, "lat": 30.2024077, "lon": -97.6633121}, {"type": "node", "id": 9341722416, "lat": 30.20243, "lon": -97.6634021}, {"type": "node", "id": 9341730017, "lat": 30.2024309, "lon": -97.6633124}, {"type": "node", "id": 9358600070, "lat": 30.3909705, "lon": -97.722247}, {"type": "node", "id": 9358600071, "lat": 30.3909644, "lon": -97.7222491}, {"type": "node", "id": 9358600072, "lat": 30.390787, "lon": -97.7223492}, {"type": "node", "id": 9358600073, "lat": 30.3908319, "lon": -97.7223332}, {"type": "node", "id": 9358600074, "lat": 30.3908356, "lon": -97.7223472}, {"type": "node", "id": 9358600075, "lat": 30.3908645, "lon": -97.7223369}, {"type": "node", "id": 9358600076, "lat": 30.3909366, "lon": -97.7221955}, {"type": "node", "id": 9416656303, "lat": 30.2662415, "lon": -97.7450879}, {"type": "node", "id": 9416656304, "lat": 30.2662803, "lon": -97.7452238}, {"type": "node", "id": 9416656305, "lat": 30.2662025, "lon": -97.7452535}, {"type": "node", "id": 9416656306, "lat": 30.2661637, "lon": -97.7451177}, {"type": "node", "id": 9431562138, "lat": 30.3259723, "lon": -97.7170784, "tags": {"addr:city": "Austin", "addr:housenumber": "6015", "addr:postcode": "78752", "addr:state": "TX", "addr:street": "Dillard Circle", "addr:unit": "Unit B", "amenity": "cafe", "bar": "yes", "cuisine": "coffee_shop", "internet_access": "wlan", "internet_access:fee": "no", "name": "Spokesman - Highland", "opening_hours": "Mo-Fr 08:00-22:00; Sa-Su 09:00-16:00", "outdoor_seating": "yes", "phone": "+1-512-586-9657", "website": "https://www.spokesmancoffee.com/", "wheelchair": "yes"}}, {"type": "node", "id": 9447901819, "lat": 30.2552476, "lon": -97.7615937}, {"type": "node", "id": 9462208189, "lat": 30.2964103, "lon": -97.7078213}, {"type": "node", "id": 9462208190, "lat": 30.2963897, "lon": -97.7078171}, {"type": "node", "id": 9462208191, "lat": 30.2964008, "lon": -97.7077446}, {"type": "node", "id": 9462208192, "lat": 30.2964214, "lon": -97.7077488}, {"type": "node", "id": 9571493096, "lat": 30.2606838, "lon": -97.7471138, "tags": {"addr:city": "Austin", "addr:housenumber": "208", "addr:postcode": "78704", "addr:state": "TX", "addr:street": "Barton Springs Road", "amenity": "cafe", "branch": "Hyatt Regency Austin Lobby", "brand": "Starbucks", "brand:wikidata": "Q37158", "cuisine": "coffee_shop", "indoor_seating": "yes", "name": "Starbucks", "official_name": "Starbucks Coffee", "opening_hours": "Mo-Su 06:00-18:00", "outdoor_seating": "yes", "phone": "+1 512-477-1234", "ref": "1007529", "takeaway": "yes", "website": "https://www.starbucks.com/store-locator/store/1007529/hyatt-regency-austin-lobby-208-barton-springs-rd-austin-tx-78704-us"}}, {"type": "node", "id": 9799864985, "lat": 30.2630655, "lon": -97.7138253, "tags": {"amenity": "cafe", "name": "Desnudo Coffee"}}, {"type": "node", "id": 9844659945, "lat": 30.2021187, "lon": -97.6688216, "tags": {"amenity": "cafe", "brand": "Caribou Coffee", "brand:wikidata": "Q5039494", "cuisine": "coffee_shop", "name": "Caribou Coffee", "takeaway": "yes"}}, {"type": "node", "id": 9871137225, "lat": 30.454215, "lon": -97.7926398, "tags": {"amenity": "cafe", "cuisine": "coffee_shop", "internet_access": "wlan", "name": "Cure Bakery & Coffee", "outdoor_seating": "yes"}}, {"type": "node", "id": 10002824434, "lat": 30.2827856, "lon": -97.742446}, {"type": "node", "id": 10236686752, "lat": 30.2774682, "lon": -97.734812, "tags": {"amenity": "cafe", "name": "Nourish", "opening_hours": "Mo-Fr 07:30-14:00", "outdoor_seating": "yes"}}, {"type": "node", "id": 10281193549, "lat": 30.2687874, "lon": -97.7421935, "tags": {"addr:city": "Austin", "addr:housenumber": "109", "addr:postcode": "78701", "addr:state": "TX", "addr:street": "East 7th Street", "amenity": "cafe", "name": "The Coffehouse at Caroline", "opening_hours": "Mo-Su 06:00-19:00", "website": "https://www.carolinerestaurant.com/the-coffeehouse-at-caroline"}}, {"type": "node", "id": 10538054909, "lat": 30.2957475, "lon": -97.7421673, "tags": {"amenity": "cafe", "name": "Organic Coffee", "opening_hours": "Mo-Su 08:00-15:00"}}, {"type": "node", "id": 10555261227, "lat": 30.2477249, "lon": -97.7497778, "tags": {"amenity": "cafe", "name": "Ma\u00f1ana", "takeaway": "yes"}}, {"type": "node", "id": 10563618404, "lat": 30.25576, "lon": -97.7623743, "tags": {"addr:city": "Austin", "addr:housenumber": "1100", "addr:postcode": "78704", "addr:state": "TX", "addr:street": "South Lamar Boulevard", "addr:unit": "2125", "amenity": "cafe", "check_date": "2025-02-16", "cuisine": "coffee_shop", "name": "Medici Roasting", "website": "https://mediciroasting.com/"}}, {"type": "node", "id": 10596546895, "lat": 30.3854722, "lon": -97.6467943}, {"type": "node", "id": 10665998559, "lat": 30.282934, "lon": -97.7761478, "tags": {"addr:city": "Austin", "addr:housenumber": "2652", "addr:postcode": "78703", "addr:state": "TX", "addr:street": "Lake Austin Boulevard", "air_conditioning": "yes", "amenity": "cafe", "cuisine": "mexican;coffee_shop", "level": "0", "name": "Lake Austin's Coffee Spot", "opening_hours": "Mo-Su 07:00-21:00", "outdoor_seating": "yes"}}, {"type": "node", "id": 10706612991, "lat": 30.27049, "lon": -97.7532554, "tags": {"amenity": "cafe", "brand": "La Colombe Coffee Roasters", "brand:wikidata": "Q23461663", "cuisine": "coffee_shop", "name": "La Colombe Coffee Roasters", "opening_hours": "Mo-Su 07:00-19:00", "short_name": "La Colombe", "takeaway": "yes"}}, {"type": "node", "id": 10788783517, "lat": 30.4149046, "lon": -97.672214}, {"type": "node", "id": 10793558095, "lat": 30.2022619, "lon": -97.6654663, "tags": {"addr:city": "Austin", "addr:housenumber": "3600", "addr:postcode": "78719", "addr:state": "TX", "addr:street": "Presidential Boulevard", "amenity": "cafe", "branch": "AUS Main Terminal Gate 15", "brand": "Starbucks", "brand:wikidata": "Q37158", "cuisine": "coffee_shop", "indoor_seating": "no", "level": "1", "name": "Starbucks", "official_name": "Starbucks Coffee", "opening_hours": "Mo-Su 04:00-20:00", "outdoor_seating": "no", "phone": "+1 737-239-7338", "ref": "1026919", "takeaway": "only", "website": "https://www.starbucks.com/store-locator/store/1026919/aus-main-terminal-gate-15-3600-presidential-blvd-austin-tx-78719-us"}}, {"type": "node", "id": 10865943772, "lat": 30.2478149, "lon": -97.7746824, "tags": {"addr:city": "Austin", "addr:housenumber": "2300", "addr:postcode": "78704", "addr:state": "TX", "addr:street": "South Lamar Boulevard", "addr:unit": "Unit 104", "amenity": "cafe", "fee": "yes", "min_age": "6", "name": "Purr-Fecto Cat Lounge", "shop": "pet", "theme": "cat", "website": "https://purrfectocatlounge.com/"}}, {"type": "node", "id": 10919929226, "lat": 30.3063809, "lon": -97.709145, "tags": {"addr:city": "Austin", "addr:housenumber": "1201", "addr:postcode": "78723", "addr:state": "TX", "addr:street": "Barbara Jordan Boulevard", "addr:unit": "100", "air_conditioning": "yes", "amenity": "cafe", "check_date": "2023-11-22", "cuisine": "french", "delivery": "yes", "internet_access": "wlan", "internet_access:fee": "customers", "name": "La Madeleine", "opening_hours": "07:00-21:30", "outdoor_seating": "yes", "phone": "+1-512-366-3825", "reservation": "yes", "takeaway": "yes", "website": "https://lamadeleine.com/", "wheelchair": "yes"}}, {"type": "node", "id": 11012760237, "lat": 30.2474739, "lon": -97.7758453, "tags": {"amenity": "cafe", "cuisine": "coffee_shop", "name": "Maha Coffee"}}, {"type": "node", "id": 11071504905, "lat": 30.2653919, "lon": -97.7428231, "tags": {"addr:housenumber": "105, 301", "amenity": "cafe", "cuisine": "breakfast;mexican", "name": "Mirandas Cafe"}}, {"type": "node", "id": 11083906203, "lat": 30.3376096, "lon": -97.7175781, "tags": {"addr:city": "Austin", "addr:housenumber": "6929", "addr:postcode": "78752", "addr:state": "TX", "addr:street": "Airport Boulevard", "addr:unit": "110", "amenity": "cafe", "cuisine": "bubble_tea", "opening_hours": "Mo-Th 12:00-21:00, Fr-Sa 11:00-22:00, Su 11:00-21:00", "outdoor_seating": "no", "phone": "+1-512-284-9377", "website": "https://www.fruitealicious.com/"}}, {"type": "node", "id": 11111850805, "lat": 30.4780176, "lon": -97.7664202, "tags": {"addr:city": "Austin", "addr:country": "US", "addr:housenumber": "9225", "addr:postcode": "78717", "addr:state": "TX", "addr:street": "West Parmer Lane", "addr:unit": "b101", "amenity": "cafe", "cuisine": "coffee_shop", "drive_through": "yes", "internet_access": "yes", "internet_access:fee": "no", "name": "Cuppa Austin Coffee", "opening_hours": "Mo-Fr 06:30-21:00; Sa,Su 07:00-21:00", "phone": "+1-512-382-6729", "website": "https://www.cuppaaustin.com/"}}, {"type": "node", "id": 11123061239, "lat": 30.2496313, "lon": -97.894979, "tags": {"amenity": "cafe", "cuisine": "coffee_shop;mexican", "name": "Sunrise at Shore", "opening_hours": "Mo-Su 07:00-14:00", "outdoor_seating": "no"}}, {"type": "node", "id": 11137481791, "lat": 30.3854181, "lon": -97.6466959}, {"type": "node", "id": 11137481792, "lat": 30.3853086, "lon": -97.6467768}, {"type": "node", "id": 11137481793, "lat": 30.3853627, "lon": -97.6468751}, {"type": "node", "id": 11196203589, "lat": 30.27351, "lon": -97.7223157, "tags": {"addr:city": "Austin", "addr:housenumber": "1614", "addr:postcode": "78702", "addr:state": "TX", "addr:street": "E 12th Street", "amenity": "cafe", "contact:instagram": "https://www.instagram.com/eltigrecoffee/", "cuisine": "cafe", "internet_access": "yes", "name": "El Tigre", "opening_hours": "Mo-Fr 07:00-14:00, Sa-Su 09:00-14:00", "outdoor_seating": "yes", "phone": "+1-512-387-6712", "website": "https://www.eltigrecoffee.com/"}}, {"type": "node", "id": 11198016149, "lat": 30.2824609, "lon": -97.7424722}, {"type": "node", "id": 11198016150, "lat": 30.2825478, "lon": -97.7424648}, {"type": "node", "id": 11198016151, "lat": 30.2825331, "lon": -97.7422304}, {"type": "node", "id": 11198016153, "lat": 30.28259, "lon": -97.7422691}, {"type": "node", "id": 11198016154, "lat": 30.2825986, "lon": -97.7424066}, {"type": "node", "id": 11198016159, "lat": 30.2825877, "lon": -97.7422326}, {"type": "node", "id": 11212844007, "lat": 30.2850801, "lon": -97.7447361, "tags": {"addr:city": "Austin", "addr:housenumber": "611", "addr:postcode": "78705", "addr:state": "TX", "addr:street": "West 22nd Street", "air_conditioning": "yes", "amenity": "cafe", "branch": "Pickup - 22nd & Rio Grande", "brand": "Starbucks", "brand:wikidata": "Q37158", "cuisine": "coffee_shop", "name": "Starbucks", "official_name": "Starbucks Coffee", "opening_hours": "Mo-Fr 05:30-19:30; Sa-Su 06:00-19:30", "phone": "+1 512-768-0910", "takeaway": "yes", "website": "https://www.starbucks.com/store-locator/store/1031272/"}}, {"type": "node", "id": 11212844032, "lat": 30.286841, "lon": -97.7449201, "tags": {"addr:city": "Austin", "addr:housenumber": "2222", "addr:postcode": "78705", "addr:state": "TX", "addr:street": "Rio Grande Street", "addr:unit": "C120", "amenity": "cafe", "cuisine": "bubble_tea", "name": "TSAOCAA", "name:zh-Hant": "\u671d\u8336", "website": "https://www.tsaocaatx.com/"}}, {"type": "node", "id": 11242814776, "lat": 30.2686227, "lon": -97.7422994}, {"type": "node", "id": 11242814791, "lat": 30.2685903, "lon": -97.7424083}, {"type": "node", "id": 11242814792, "lat": 30.2684879, "lon": -97.7420367}, {"type": "node", "id": 11242814794, "lat": 30.2684642, "lon": -97.7419466}, {"type": "node", "id": 11242814795, "lat": 30.2685219, "lon": -97.7419262}, {"type": "node", "id": 11253959206, "lat": 30.4680786, "lon": -97.7617151, "tags": {"addr:city": "Austin", "addr:housenumber": "8701", "addr:postcode": "78729", "addr:state": "TX", "addr:street": "West Parmer Lane", "addr:unit": "2127", "amenity": "cafe", "cuisine": "coffee_shop;sandwich;pastry", "name": "Rocket Coffee", "outdoor_seating": "yes", "phone": "+1-512-551-2655", "website": "https://rocketcoffeeatx.com/"}}, {"type": "node", "id": 11336423623, "lat": 30.215817, "lon": -97.7976628, "tags": {"amenity": "cafe", "cuisine": "coffee_shop", "name": "Jo's Coffee"}}, {"type": "node", "id": 11374434914, "lat": 30.410096, "lon": -97.8515676}, {"type": "node", "id": 11374434915, "lat": 30.4101035, "lon": -97.8515607}, {"type": "node", "id": 11374434916, "lat": 30.4100718, "lon": -97.8514832}, {"type": "node", "id": 11374434917, "lat": 30.4100082, "lon": -97.8515181}, {"type": "node", "id": 11374434918, "lat": 30.4100138, "lon": -97.8515318}, {"type": "node", "id": 11374434919, "lat": 30.4099367, "lon": -97.8515742}, {"type": "node", "id": 11374434920, "lat": 30.4099579, "lon": -97.8516262}, {"type": "node", "id": 11374434921, "lat": 30.4099469, "lon": -97.8516323}, {"type": "node", "id": 11374434922, "lat": 30.409958, "lon": -97.8516594}, {"type": "node", "id": 11374434923, "lat": 30.4099714, "lon": -97.8516611}, {"type": "node", "id": 11374434924, "lat": 30.4100106, "lon": -97.8517664}, {"type": "node", "id": 11404295569, "lat": 30.410145, "lon": -97.851699}, {"type": "node", "id": 11404295570, "lat": 30.4532051, "lon": -97.8270471, "tags": {"addr:city": "Austin", "addr:housenumber": "11521", "addr:postcode": "78726", "addr:state": "TX", "addr:street": "Ranch Road 620 North", "addr:unit": "950", "amenity": "cafe", "branch": "620 & Anderson Mill", "brand": "Starbucks", "brand:wikidata": "Q37158", "cuisine": "coffee_shop", "internet_access": "wlan", "name": "Starbucks", "official_name": "Starbucks Coffee", "opening_hours": "Mo-Fr 05:00-20:00; Sa 05:30-20:00; Su 05:30-19:30", "phone": "+1 512-250-8066", "takeaway": "yes", "website": "https://www.starbucks.com/store-locator/store/68132"}}, {"type": "node", "id": 11447439341, "lat": 30.2759203, "lon": -97.8000795, "tags": {"addr:city": "Austin", "addr:housenumber": "3300", "addr:postcode": "78746", "addr:state": "TX", "addr:street": "Bee Caves Road", "addr:unit": "250", "air_conditioning": "yes", "amenity": "cafe", "branch": "Walsh Tarlton and Bee Caves", "brand": "Starbucks", "brand:wikidata": "Q37158", "check_date": "2023-12-23", "cuisine": "coffee_shop", "internet_access": "wlan", "internet_access:fee": "customers", "name": "Starbucks", "official_name": "Starbucks Coffee", "opening_hours": "Mo-Fr 05:30-19:00; Sa 06:00-19:30; Su 06:00-17:00", "phone": "+1 512-306-8744", "takeaway": "yes", "website": "https://www.starbucks.com", "wheelchair": "yes"}}, {"type": "node", "id": 11492466913, "lat": 30.2672874, "lon": -97.7545299, "tags": {"addr:city": "Austin", "addr:housenumber": "111", "addr:postcode": "78703", "addr:state": "TX", "addr:street": "Sandra Muraida Way", "addr:unit": "101", "amenity": "cafe", "cuisine": "coffee_shop", "name": "Ma\u0148ana", "opening_hours": "Mo-Su 07:00-19:00"}}, {"type": "node", "id": 11534850749, "lat": 30.3387832, "lon": -97.7187041, "tags": {"addr:city": "Austin", "addr:housenumber": "7020", "addr:postcode": "78752", "addr:state": "TX", "addr:street": "Easy Wind Drive", "addr:unit": "150", "amenity": "cafe", "brand": "Hui Lau Shan", "brand:en": "Hui Lau Shan", "brand:wikidata": "Q5934913", "brand:zh": "\u8a31\u7559\u5c71", "cuisine": "asian;dessert", "drive_through": "no", "name": "Hui Lau Shan", "name:en": "Hui Lau Shan", "name:zh": "\u8a31\u7559\u5c71", "opening_hours": "Su-Th 12:00-22:00; Fr,Sa 12:00-22:30", "takeaway": "yes", "website": "https://huilaushan.us"}}, {"type": "node", "id": 11808981979, "lat": 30.2755268, "lon": -97.765193, "tags": {"access": "private", "addr:city": "Austin", "addr:housenumber": "1717", "addr:postcode": "78703", "addr:state": "TX", "addr:street": "West 6th Street", "amenity": "cafe", "cuisine": "coffee_shop", "level": "0", "name": "Heartland City Club", "private": "tenants"}}, {"type": "node", "id": 11874722142, "lat": 30.4168674, "lon": -97.6991271, "tags": {"air_conditioning": "yes", "amenity": "cafe", "cuisine": "coffee_shop", "internet_access": "yes", "internet_access:fee": "no", "name": "Heaven's Bistro Bakery"}}, {"type": "node", "id": 11874815070, "lat": 30.4120965, "lon": -97.689915, "tags": {"amenity": "cafe", "cuisine": "coffee_shop;vietnamese", "internet_access": "yes", "name": "Sip Munch Cafe"}}, {"type": "node", "id": 12151990157, "lat": 30.4019256, "lon": -97.7264596, "tags": {"amenity": "cafe", "name": "Sweet Paris"}}, {"type": "node", "id": 12195865627, "lat": 30.3853209, "lon": -97.6467992}, {"type": "node", "id": 12248654929, "lat": 30.2765365, "lon": -97.7496715, "tags": {"addr:city": "Austin", "addr:housenumber": "824", "addr:postcode": "78701", "addr:state": "TX", "addr:street": "West 12th Street", "amenity": "cafe", "cuisine": "coffee_shop", "name": "Idlewild Coffee"}}, {"type": "node", "id": 12400742849, "lat": 30.2576584, "lon": -97.7048592, "tags": {"addr:housenumber": "3223", "addr:street": "East 7th Street", "amenity": "cafe", "check_date": "2024-12-06", "cuisine": "coffee_shop", "internet_access": "wlan", "internet_access:fee": "no", "name": "Texas Coffee Roasters", "outdoor_seating": "yes", "payment:cash": "yes", "payment:credit_cards": "yes", "payment:debit_cards": "yes", "wheelchair": "yes"}}, {"type": "node", "id": 12405370885, "lat": 30.2880759, "lon": -97.7426358}, {"type": "node", "id": 12405370886, "lat": 30.2878399, "lon": -97.7426606}, {"type": "node", "id": 12426890890, "lat": 30.2022458, "lon": -97.664333, "tags": {"amenity": "cafe", "bar": "yes", "indoor_seating": "yes", "level": "1", "name": "Zocalo Cafe", "outdoor_seating": "no"}}, {"type": "node", "id": 12467433577, "lat": 30.2856787, "lon": -97.7115843, "tags": {"addr:city": "Austin", "addr:country": "US", "addr:housenumber": "2806", "addr:postcode": "78722", "addr:state": "TX", "addr:street": "Manor Road", "amenity": "cafe", "brand": "Fleet Coffee", "brand:facebook": "https://www.facebook.com/FleetCoffeeCo", "brand:instagram": "https://www.instagram.com/fleetcoffeeco/", "brand:twitter": "https://x.com/fleetcoffeeco", "brand:website": "https://www.fleetcoffee.com/", "check_date": "2025-01-01", "check_date:opening_hours": "2025-01-01", "cuisine": "coffee_shop", "name": "Fleet Coffee", "opening_hours": "Mo-Th 07:00-13:30; Sa-Su 07:00-15:00"}}, {"type": "node", "id": 12496640596, "lat": 30.2781362, "lon": -97.7444516}, {"type": "node", "id": 12550044667, "lat": 30.4027582, "lon": -97.7212458, "tags": {"amenity": "cafe", "brand": "Starbucks", "brand:wikidata": "Q37158", "cuisine": "coffee_shop", "name": "Starbucks", "official_name": "Starbucks Coffee", "takeaway": "yes"}}, {"type": "node", "id": 12550422376, "lat": 30.2213187, "lon": -97.7567513, "tags": {"amenity": "cafe", "cuisine": "bubble_tea", "name": "Austea"}}, {"type": "node", "id": 12577833091, "lat": 30.2652626, "lon": -97.7383962, "tags": {"addr:city": "Austin", "addr:housenumber": "555", "addr:state": "TX", "addr:street": "East 4th Street", "amenity": "cafe", "brand": "Starbucks", "brand:wikidata": "Q37158", "cuisine": "coffee_shop", "name": "Starbucks", "official_name": "Starbucks Coffee", "takeaway": "yes"}}, {"type": "node", "id": 12579400459, "lat": 30.2740058, "lon": -97.7448779, "tags": {"amenity": "cafe", "diet:vegetarian": "yes", "indoor_seating": "yes", "name": "Phoebe's Diner", "opening_hours": "Mo-Su 07:00-15:00", "outdoor_seating": "yes"}}, {"type": "node", "id": 12580193186, "lat": 30.2799893, "lon": -97.7388481, "tags": {"amenity": "cafe", "diet:vegan": "yes", "diet:vegetarian": "yes", "indoor_seating": "yes", "name": "The Star Cafe", "outdoor_seating": "yes", "payment:credit_cards": "yes", "payment:debit_cards": "yes"}}, {"type": "node", "id": 12593350611, "lat": 30.2693448, "lon": -97.7464777, "tags": {"amenity": "cafe", "brand": "Black Sheep Coffee", "brand:wikidata": "Q109745011", "cuisine": "coffee_shop", "name": "Black Sheep Coffee", "takeaway": "yes"}}, {"type": "node", "id": 12594096401, "lat": 30.202367, "lon": -97.6678025, "tags": {"amenity": "cafe", "cuisine": "coffee_shop"}}, {"type": "node", "id": 12634611097, "lat": 30.3555394, "lon": -97.7302023, "tags": {"addr:housenumber": "2301", "addr:postcode": "78757", "addr:street": "W Anderson Ln", "addr:unit": "100", "amenity": "cafe", "name": "Summer Moon Coffee", "opening_hours": "Mo-Fr 06:00-19:00; Sa, Su 07:00-19:00", "outdoor_seating": "yes", "phone": "+1-512-582-0879", "website": "https://locations.summermooncoffee.com/locations/west-anderson-austin"}}, {"type": "node", "id": 12705567215, "lat": 30.2627736, "lon": -97.7254221, "tags": {"addr:unit": "112", "amenity": "cafe", "cuisine": "coffee_shop", "indoor_seating": "yes", "name": "Klerj\u0113 Coffee", "opening_hours": "Tu-Su 07:00-16:00; Mo off", "outdoor_seating": "no"}}, {"type": "node", "id": 12705577230, "lat": 30.2628366, "lon": -97.7256008, "tags": {"amenity": "cafe", "cuisine": "bubble_tea", "indoor_seating": "yes", "name": "LOVE Bubble Tea", "opening_hours": "Su,Mo 11:00-19:00; Tu-Sa 11:00-21:00", "outdoor_seating": "no"}}, {"type": "node", "id": 12708690933, "lat": 30.2619801, "lon": -97.761792, "tags": {"addr:city": "Austin", "addr:housenumber": "1601", "addr:postcode": "78704", "addr:state": "TX", "addr:street": "Barton Springs Road", "amenity": "cafe", "image": "https://osm-img.piperswe.me/20250328_osm_survey_5_30/20250328_0031.jpg", "level": "1", "name": "Love Lamp Matcha", "website": "https://lovelampmatcha.com/"}}, {"type": "node", "id": 12800944897, "lat": 30.2684394, "lon": -97.7448291, "tags": {"addr:city": "Austin", "addr:housenumber": "221", "addr:postcode": "78701", "addr:state": "TX", "addr:street": "West 6th Street", "addr:unit": "B110", "amenity": "cafe", "name": "Thistle Cafe", "opening_hours": "Mo-Fr 07:30-14:30", "phone": "+1-512-474-5222"}}, {"type": "node", "id": 12833607233, "lat": 30.3013564, "lon": -97.6620305, "tags": {"addr:city": "Austin", "addr:housenumber": "6216", "addr:postcode": "78724", "addr:state": "TX", "addr:street": "Ed Bluestein Boulevard", "amenity": "cafe", "brand": "Dutch Bros. Coffee", "brand:wikidata": "Q5317253", "cuisine": "coffee_shop", "name": "Dutch Bros. Coffee", "opening_hours": "Mo-Th 05:00-22:00; Fr-Sa 05:00-23:00; Su 05:00-22:00", "takeaway": "only"}}, {"type": "node", "id": 12863458629, "lat": 30.2619053, "lon": -97.7209601, "tags": {"addr:city": "Austin", "addr:housenumber": "1923", "addr:postcode": "78702", "addr:state": "TX", "addr:street": "East 7th Street", "addr:unit": "150", "amenity": "cafe", "cuisine": "bubble_tea", "name": "Terrazzo Tea", "opening_hours": "Mo-We 11:00-21:00; Th-Sa 11:00-22:00; Su 11:00-20:00", "phone": "+1-512-363-5630", "website": "https://terrazzotea.com"}}, {"type": "node", "id": 12894970949, "lat": 30.3118866, "lon": -97.7603128, "tags": {"amenity": "cafe", "name": "Cafe Americana"}}, {"type": "way", "id": 31054328, "nodes": [3181780243, 345208506, 345208507, 345208508, 345207707, 345208509, 345208510, 345208511, 3181780243], "tags": {"addr:city": "Austin", "addr:housenumber": "3825", "addr:street": "Lake Austin Boulevard", "amenity": "cafe", "building": "yes", "cuisine": "coffee_shop", "internet_access": "yes", "name": "Mozart's Coffee Roasters", "toilets:wheelchair": "no", "wheelchair": "no;yes"}}, {"type": "way", "id": 31143515, "nodes": [346369689, 346369691, 8780196277, 8780196276, 8780196275, 8780196274, 346369693, 346369694, 346369689], "tags": {"amenity": "cafe", "brand": "The Coffee Bean & Tea Leaf", "brand:wikidata": "Q1141384", "building": "yes", "cuisine": "coffee_shop", "name": "The Coffee Bean & Tea Leaf", "takeaway": "yes"}}, {"type": "way", "id": 42874326, "nodes": [536730905, 536730907, 536730909, 536730911, 536730905], "tags": {"addr:city": "Austin", "addr:housenumber": "1000", "addr:postcode": "78751", "addr:state": "TX", "addr:street": "East 41st Street", "addr:unit": "G", "amenity": "cafe", "building": "yes", "cuisine": "coffee_shop", "name": "Jo's Coffee Red River", "opening_hours": "Sa-Su 07:00-19:00", "phone": "+1 512 383 5211", "website": "https://joscoffee.com/red-river"}}, {"type": "way", "id": 44538233, "nodes": [565736565, 565736566, 565736570, 5303724617, 5303724618, 5303724619, 5303724616, 565736572, 565736565], "tags": {"addr:city": "Austin", "addr:housenumber": "3328", "addr:postcode": "78748", "addr:state": "TX", "addr:street": "West Slaughter Lane", "amenity": "cafe", "branch": "Slaughter & Brodie", "brand": "Starbucks", "brand:wikidata": "Q37158", "building": "yes", "cuisine": "coffee_shop", "name": "Starbucks", "official_name": "Starbucks Coffee", "phone": "+1 512-280-2450", "takeaway": "yes", "website": "https://www.starbucks.com/store-locator/store/116608/slaughter-brodie-3328-slaughter-lane-austin-tx-787486297-us"}}, {"type": "way", "id": 52697897, "nodes": [668901037, 668901102, 668901036, 668901067, 668901037], "tags": {"addr:housename": "River City Donuts", "addr:housenumber": "1945", "addr:postcode": "78745", "addr:street": "West William Cannon Drive", "amenity": "cafe", "building": "yes", "drive_through": "yes"}}, {"type": "way", "id": 72486497, "nodes": [860544255, 860544256, 860544257, 860544258, 860544259, 860544260, 860544261, 860544262, 860544255], "tags": {"addr:housenumber": "8578", "addr:postcode": "78757", "addr:street": "Research Boulevard", "amenity": "cafe", "building": "yes", "name": "Sugar Pine"}}, {"type": "way", "id": 147437195, "nodes": [1606646724, 1606646725, 1606646727, 1606646729, 1606646724], "tags": {"addr:city": "Austin", "addr:housenumber": "2900", "addr:postcode": "78757", "addr:state": "TX", "addr:street": "West Anderson Lane", "amenity": "cafe", "branch": "Rockwood & Anderson", "brand": "Starbucks", "brand:wikidata": "Q37158", "building": "yes", "cuisine": "coffee_shop", "delivery": "yes", "internet_access": "wlan", "name": "Starbucks", "official_name": "Starbucks Coffee", "opening_hours": "Mo-Su 05:00-21:00", "outdoor_seating": "yes", "phone": "+1 512-467-1548", "takeaway": "yes", "website": "https://www.starbucks.com/store-locator/store/18566/rockwood-anderson-2900-west-anderson-lane-austin-tx-787571102-us", "wheelchair": "yes"}}, {"type": "way", "id": 162414472, "nodes": [7272598942, 1743142321, 1743142316, 1743142319, 3859164351, 1743142317, 1743142318, 7272598942], "tags": {"addr:city": "Austin", "addr:housenumber": "2505", "addr:postcode": "78727", "addr:state": "TX", "addr:street": "Parmer Lane", "amenity": "cafe", "branch": "Mopac & Parmer", "brand": "Starbucks", "brand:wikidata": "Q37158", "building": "yes", "cuisine": "coffee_shop", "name": "Starbucks", "official_name": "Starbucks Coffee", "phone": "+1 512-973-9046", "ref": "7461", "takeaway": "yes", "website": "https://www.starbucks.com/store-locator/store/7461/mopac-parmer-2505-parmer-lane-austin-tx-787274212-us"}}, {"type": "way", "id": 209081913, "nodes": [2193106641, 2193106582, 2193106585, 2193106591, 2193106588, 2193106641], "tags": {"addr:city": "Austin", "addr:housenumber": "7709", "addr:postcode": "78744", "addr:state": "TX", "addr:street": "East Ben White Boulevard", "addr:unit": "100", "amenity": "cafe", "branch": "State Route 71 & East Riverside", "brand": "Starbucks", "brand:wikidata": "Q37158", "building": "yes", "cuisine": "coffee_shop", "name": "Starbucks", "official_name": "Starbucks Coffee", "phone": "+1 512-386-8826", "ref": "10649", "source": "bing", "takeaway": "yes", "website": "https://www.starbucks.com/store-locator/store/10649/sr-71-e-riverside-7709-e-ben-white-blvd-100-austin-tx-787441787-us"}}, {"type": "way", "id": 236328465, "nodes": [2443656462, 2443656466, 2443656472, 2443656474, 2443656462], "tags": {"addr:city": "austin", "addr:housenumber": "6903", "addr:postcode": "78752", "addr:state": "TX", "addr:street": "Airport Boulevard", "amenity": "cafe", "brand": "Starbucks", "brand:wikidata": "Q37158", "building": "yes", "coa:place_id": "181491", "cuisine": "coffee_shop", "name": "Starbucks", "official_name": "Starbucks Coffee", "takeaway": "yes"}}, {"type": "way", "id": 241777393, "nodes": [2493686514, 2493686513, 2493686516, 2493686533, 2493686514], "tags": {"addr:city": "Austin", "addr:housenumber": "7015", "addr:postcode": "78736", "addr:state": "TX", "addr:street": "West Highway 290", "amenity": "cafe", "branch": "State Route 71 & Us 290", "brand": "Starbucks", "brand:wikidata": "Q37158", "building": "yes", "cuisine": "coffee_shop", "name": "Starbucks", "official_name": "Starbucks Coffee", "phone": "+1 512-288-0662", "ref": "18579", "takeaway": "yes", "website": "https://www.starbucks.com/store-locator/store/18579/sr-71-us-290-7015-west-us-hwy-290-austin-tx-787368303-us"}}, {"type": "way", "id": 259619422, "nodes": [2650538872, 2650538875, 2650538878, 2650538881, 2650538884, 2650538887, 2650538872], "tags": {"addr:housenumber": "5530", "addr:postcode": "78756", "addr:street": "Burnet Road", "amenity": "cafe", "building": "yes", "name": "Hey Cupcake"}}, {"type": "way", "id": 312337826, "nodes": [3181780244, 3181872977, 3181872978, 3181872979, 3181872980, 3181872981, 3181780244], "tags": {"addr:housenumber": "1300", "addr:street": "South Congress Avenue", "amenity": "cafe", "building": "yes", "facebook": "https://www.facebook.com/joscoffee", "name": "Jo's Coffee", "website": "https://www.joscoffee.com/south-congress-jos"}}, {"type": "way", "id": 323716467, "nodes": [3304974691, 5329733929, 3304974732, 3304974875, 3304974691], "tags": {"amenity": "cafe", "building": "retail", "drive_through": "yes", "name": "Summer Moon Coffee", "old_name": "The Coffee Bean & Tea Leaf", "opening_hours": "Mo-Su 06:00-20:00", "outdoor_seating": "yes", "phone": "+1 512-401-3124", "website": "https://summermooncoffee.com/"}}, {"type": "way", "id": 331965519, "nodes": [3390691024, 7053243780, 1990907630, 7053243781, 1990907550, 7053243779, 3390691043, 3390691042, 3390691037, 3390691036, 3390691029, 3390691027, 3390691020, 3390691022, 3390691021, 3390691024], "tags": {"amenity": "cafe", "building": "yes", "building:levels": "1", "internet_access": "wlan", "internet_access:fee": "customers", "internet_access:ssid": "Eanes ISD", "name": "Westlake High School Ninth Grade Cafeteria", "outdoor_seating": "yes"}}, {"type": "way", "id": 343262782, "nodes": [3501312163, 3501312164, 3501312165, 3501312168, 3501312170, 3501312181, 12405370885, 12405370886, 3501312163], "tags": {"addr:city": "Austin", "addr:housenumber": "504", "addr:postcode": "78705", "addr:state": "TX", "addr:street": "West 24th Street", "addr:unit": "B", "air_conditioning": "yes", "amenity": "cafe", "branch": "West24th & Nueces (White House)", "brand": "Starbucks", "brand:wikidata": "Q37158", "building": "yes", "cuisine": "coffee_shop", "drive_through": "no", "name": "Starbucks", "official_name": "Starbucks Coffee", "outdoor_seating": "yes", "phone": "+1 512-472-5211", "ref": "16692", "takeaway": "yes", "website": "https://www.starbucks.com/store-locator/store/16692/w-24th-nueces-white-house-504-w-24th-st-suite-b-austin-tx-787055231-us"}}, {"type": "way", "id": 357824854, "nodes": [3629449324, 3629449325, 3629449326, 3629449327, 3629449324], "tags": {"addr:housenumber": "1401", "addr:postcode": "78756", "addr:street": "West Koenig Lane", "amenity": "cafe", "building": "yes", "check_date:opening_hours": "2023-03-28", "internet_access": "yes", "name": "Bird Bird Biscuit", "opening_hours:signed": "no", "website": "https://www.birdbirdbiscuit.com"}}, {"type": "way", "id": 360921966, "nodes": [3654620896, 3654620897, 3654620898, 3654620899, 3654620900, 3654620901, 3654620902, 3654620903, 3654620896], "tags": {"addr:city": "Austin", "addr:housenumber": "4800", "addr:postcode": "78756", "addr:state": "TX", "addr:street": "Burnet Road", "amenity": "cafe", "building": "yes", "cuisine": "oyster", "internet_access": "yes", "name": "Apothecary Cafe & Wine Bar"}}, {"type": "way", "id": 364451350, "nodes": [3684971229, 3684971227, 3684939524, 3684971226, 3684971225, 3684971228, 3684971231, 3684971230, 3684971229], "tags": {"addr:city": "Austin", "addr:housenumber": "516", "addr:postcode": "78704", "addr:state": "TX", "addr:street": "West Oltorf Street", "amenity": "cafe", "branch": "1st & Oltorf", "brand": "Starbucks", "brand:wikidata": "Q37158", "building": "yes", "cuisine": "coffee_shop", "name": "Starbucks", "official_name": "Starbucks Coffee", "phone": "+1 512-534-6654", "takeaway": "yes", "website": "https://www.starbucks.com/store-locator/store/1007391/1st-oltorf-516-w-oltorf-austin-tx-787045448-us"}}, {"type": "way", "id": 379193964, "nodes": [3825287772, 3825287515, 3825287513, 3825287499, 3825287506, 3825287779, 3825287782, 3825287801, 3825287786, 3825287772], "tags": {"addr:city": "Austin", "addr:housenumber": "1209", "addr:postcode": "78702", "addr:state": "TX", "addr:street": "East 7th Street", "amenity": "cafe", "brand:website": "https://www.buzzmillcoffee.com/", "building": "yes", "coa:place_id": "401750", "cuisine": "coffee_shop", "height": "7.13", "internet_access": "wlan", "internet_access:fee": "customers", "name": "Buzz Mill", "opening_hours": "07:00-24:00", "outdoor_seating": "yes"}}, {"type": "way", "id": 379207931, "nodes": [3825368247, 3825368248, 3825368286, 3825368278, 3825368246, 3825368247], "tags": {"addr:housenumber": "1115", "addr:street": "East 11th Street", "amenity": "cafe", "building": "yes", "coa:place_id": "3132866", "height": "10.9", "name": "Try Hard Coffee Roastere", "outdoor_seating": "yes", "takeaway": "yes", "wheelchair": "yes"}}, {"type": "way", "id": 380917034, "nodes": [3842123745, 3842123761, 3842123764, 3842123797, 3842123796, 3842123760, 3842123759, 3842123743, 3842123745], "tags": {"addr:city": "Austin", "addr:housenumber": "901", "addr:state": "TX", "addr:street": "West 24th Street", "amenity": "cafe", "building": "yes", "height": "8.0", "import": "yes", "name": "Arab Cowboy", "source": "City of Austin"}}, {"type": "way", "id": 380922395, "nodes": [11198016149, 3842175224, 3842175206, 3842175210, 11198016149], "tags": {"addr:city": "Austin", "addr:housenumber": "1906", "addr:postcode": "78705", "addr:state": "TX", "addr:street": "Guadalupe Street", "amenity": "cafe", "building": "yes", "cuisine": "bubble_tea", "height": "10.0", "import": "yes", "name": "Tapioca House", "opening_hours": "Mo-Su 11:00-23:00", "source": "City of Austin"}}, {"type": "way", "id": 380922467, "nodes": [3842175313, 3842175273, 3842175274, 3842175262, 10002824434, 3842175271, 3842175287, 3842175313], "tags": {"addr:city": "Austin", "addr:housenumber": "2000", "addr:postcode": "78705", "addr:state": "TX", "addr:street": "Guadalupe Street", "air_conditioning": "yes", "amenity": "cafe", "building": "yes", "check_date:opening_hours": "2025-03-07", "cuisine": "bubble_tea", "height": "12.2", "import": "yes", "name": "M\u00f6ge Tee", "name:zh-Hant": "\u613f\u8336", "opening_hours": "Su-Th 11:00-22:00; Fr-Sa 11:00-23:00", "phone": "+1 929-380-7727", "source": "City of Austin", "website": "https://www.mogeteeusa.com/"}}, {"type": "way", "id": 381793572, "nodes": [3849590389, 3849590378, 3849590371, 3849590403, 3849590411, 3849590389], "tags": {"addr:city": "Austin", "addr:housenumber": "2610", "addr:postcode": "78722", "addr:state": "TX", "addr:street": "Manor Road", "addr:unit": "B", "amenity": "cafe", "building": "yes", "cuisine": "coffee_shop", "height": "7.2", "internet_access": "wlan", "internet_access:fee": "customers", "name": "Civil Goat", "opening_hours": "Mo-Su 08:00-15:00", "outdoor_seating": "yes", "website": "https://www.civilgoat.com/"}}, {"type": "way", "id": 381799990, "nodes": [3849676202, 3849676168, 3849676158, 3849676137, 3849676081, 3849676102, 3849676095, 3849676119, 3849676128, 3849676130, 3849676204, 3849676202], "tags": {"addr:housenumber": "1601", "addr:street": "West Koenig Lane", "amenity": "cafe", "building": "retail", "cuisine": "coffee_shop", "height": "4.8", "name": "Brentwood Social House"}}, {"type": "way", "id": 381803265, "nodes": [3849701572, 3849701603, 3849701612, 3849701627, 3849701651, 3849701602, 3849701572], "tags": {"addr:city": "Austin", "addr:housenumber": "4403", "addr:state": "TX", "addr:street": "Avenue B", "amenity": "cafe", "building": "yes", "height": "5.1", "name": "Avenue B Grocery", "shop": "grocery"}}, {"type": "way", "id": 381805695, "nodes": [3849714542, 3849714535, 3849714531, 3849714512, 3849714456, 3849714471, 3849714467, 3849714476, 3849714479, 3849714483, 3849714545, 3849714537, 3849714542], "tags": {"amenity": "cafe", "building": "yes", "cuisine": "coffee_shop", "height": "3.8", "name": "Terrible Love"}}, {"type": "way", "id": 381811236, "nodes": [3849782240, 3849782238, 3849782265, 3849782264, 3849782299, 3849782300, 3849782301, 3849782302, 3849782292, 3849782291, 3849782285, 3849782284, 3849782240], "tags": {"addr:housenumber": "2307", "addr:street": "Hancock Drive", "amenity": "cafe", "building": "yes", "height": "6.2", "name": "\u00c9picerie", "opening_hours": "Su 10:30-15:00; Mo-Th 08:00-21:30; Fr-Sa 08:00-22:30"}}, {"type": "way", "id": 381834563, "nodes": [3850018815, 3850018836, 3850018937, 12496640596, 3850018920, 3850018815], "tags": {"addr:city": "Austin", "addr:housenumber": "501", "addr:postcode": "78701", "addr:state": "TX", "addr:street": "West 15th Street", "addr:unit": "D", "amenity": "cafe", "branch": "15th & San Antonio", "brand": "Starbucks", "brand:wikidata": "Q37158", "building": "yes", "cuisine": "coffee_shop", "drive_through": "no", "height": "7.1", "name": "Starbucks", "official_name": "Starbucks Coffee", "phone": "+1 512-478-9090", "ref": "14916", "takeaway": "yes", "website": "https://www.starbucks.com/store-locator/store/14916/15th-san-antonio-501-west-15th-street-austin-tx-787011516-us"}}, {"type": "way", "id": 382005960, "nodes": [3852094565, 3852094467, 3852094503, 3852094592, 3852094565], "tags": {"addr:housenumber": "4416", "addr:street": "Burnet Road", "amenity": "cafe", "building": "yes", "height": "5.0", "name": "Stinson's"}}, {"type": "way", "id": 382026997, "nodes": [3852274448, 3852274439, 3852274408, 3852274405, 3852274376, 3852274385, 3852274242, 3852274361, 3852274255, 3852274370, 3852274380, 3852274382, 3852274374, 3852274397, 3852274401, 3852274403, 3852274399, 3852274413, 3852274416, 3852274418, 3852274600, 3852274448], "tags": {"addr:city": "Austin", "addr:housenumber": "3706", "addr:postcode": "78705", "addr:state": "TX", "addr:street": "Guadalupe Street", "addr:unit": "A", "amenity": "cafe", "branch": "38th & Guadalupe", "brand": "Starbucks", "brand:wikidata": "Q37158", "building": "yes", "cuisine": "coffee_shop", "height": "7.7", "name": "Starbucks", "official_name": "Starbucks Coffee", "opening_hours": "Sa-Su 6:00-19:00; Mo-Fr 5:30-19:00", "phone": "+1 512-380-0439", "takeaway": "yes", "website": "https://www.starbucks.com/store-locator/store/8285/38th-guadalupe-3706-guadalupe-street-a-austin-tx-787051486-us"}}, {"type": "way", "id": 382159638, "nodes": [1131861112, 3853625671, 3853625661, 3853625660, 3853625653, 3853625657, 3853625635, 3853625666, 3853625719, 1131861112], "tags": {"addr:city": "Parmer-McNeil", "addr:housenumber": "6301", "addr:postcode": "78729", "addr:state": "TX", "addr:street": "West Parmer Lane", "addr:unit": "401", "amenity": "cafe", "branch": "McNeil Drive & Parmer", "brand": "Starbucks", "brand:wikidata": "Q37158", "building": "yes", "cuisine": "coffee_shop", "height": "6.8", "name": "Starbucks", "official_name": "Starbucks Coffee", "phone": "+1 512-331-7314", "ref": "9417", "takeaway": "yes", "website": "https://www.starbucks.com/store-locator/store/9417/mc-neil-dr-parmer-6301-west-parmer-lane-401-austin-tx-787296805-us"}}, {"type": "way", "id": 382444313, "nodes": [3856422125, 3856422115, 3856422142, 3856422143, 3856422144, 3856422145, 3856422147, 3856422148, 3856422138, 3856422137, 3856422125], "tags": {"addr:housenumber": "2159", "addr:street": "South Lamar Boulevard", "amenity": "cafe", "building": "yes", "height": "3.7", "name": "Patika"}}, {"type": "way", "id": 382446228, "nodes": [3856446605, 3856446571, 3856446569, 3856446576, 3856446573, 3856446593, 3856446594, 3856446596, 3856446606, 3856446604, 3856446605], "tags": {"addr:city": "Austin", "addr:housenumber": "1505", "addr:postcode": "78741", "addr:state": "TX", "addr:street": "Town Creek Drive", "air_conditioning": "yes", "amenity": "cafe", "building": "yes", "cuisine": "coffee_shop;bar", "height": "4.7", "internet_access": "yes", "internet_access:fee": "customers", "name": "The Buzz Mill", "opening_hours": "24/7", "outdoor_seating": "yes", "phone": "+1 (512) 547-9909", "website": "https://buzzmillcoffee.com", "wheelchair": "yes"}}, {"type": "way", "id": 382450478, "nodes": [3856493924, 3856493923, 3856493918, 3856493866, 3856493856, 3856493897, 3856493890, 3856494146, 3856494160, 3856493924], "tags": {"addr:housenumber": "2043", "addr:street": "South Lamar Boulevard", "amenity": "cafe", "building": "retail", "height": "29.5", "name": "Proud Mary", "outdoor_seating": "yes", "takeaway": "yes"}}, {"type": "way", "id": 382450481, "nodes": [3856494494, 3856494473, 3856494441, 3856494670, 3856494696, 3856494619, 3856494615, 3856494494], "tags": {"addr:housenumber": "2050", "addr:postcode": "78704", "addr:street": "South Lamar Boulevard", "amenity": "cafe", "building": "yes", "cuisine": "greek", "height": "6.7", "name": "OPA! Greek Cafe", "opening_hours": "Mo-Su 08:00-23:00", "outdoor_seating": "no", "phone": "+1-512-326-8742", "website": "https://opasola.com/"}}, {"type": "way", "id": 382464706, "nodes": [3856643369, 3856643356, 3856643388, 3856643517, 8926674776, 3856643369], "tags": {"addr:city": "Austin", "addr:country": "US", "addr:housenumber": "2000", "addr:postcode": "78745", "addr:state": "TX", "addr:street": "Southern Oaks Drive", "amenity": "cafe", "building": "yes", "diet:vegan": "only", "height": "4.1", "name": "Vegan Yacht", "opening_hours": "Tu-Su 12:00-17:00; Th-Sa 12:00-20:00", "outdoor_seating": "yes", "phone": "+1-512-619-7989", "website": "https://www.theveganyacht.com/"}}, {"type": "way", "id": 382483439, "nodes": [3856821490, 3856821286, 3856821281, 3856820975, 3856820844, 3856820962, 3856820958, 3856821466, 3856821504, 3856821490], "tags": {"amenity": "cafe", "building": "yes", "height": "6.4", "name": "Baguette et Chocolat"}}, {"type": "way", "id": 382559089, "nodes": [3857662336, 3857662313, 3857662318, 3857662314, 3857662328, 3857662338, 3857662337, 3857662660, 3857662355, 3857662659, 3857662349, 3857662347, 3857662336], "tags": {"addr:city": "Austin", "addr:housenumber": "1101", "addr:state": "TX", "addr:street": "West Lynn Street", "amenity": "cafe", "building": "yes", "height": "6.1", "internet_access": "yes", "internet_access:fee": "no", "name": "Caffe Medici", "opening_hours": "Mo-Fr 06:00-22:00, Sa-Su 06:30-22:00", "outdoor_seating": "yes", "wheelchair": "yes"}}, {"type": "way", "id": 382778297, "nodes": [3859974664, 3859974641, 3859974634, 3859974594, 3859974578, 3859974512, 3859974517, 3859974450, 3859974476, 3859974471, 3859974491, 3859974497, 3859974522, 3859974667, 3859974656, 3859974713, 3859974674, 3859974664], "tags": {"amenity": "cafe", "building": "yes", "cuisine": "coffee_shop", "height": "5.4", "internet_access": "yes", "name": "Trianon Coffee", "opening_hours": "Mo-Sa 07:00-19:00", "phone": "+15123284033", "website": "https://www.trianoncoffee.com/"}}, {"type": "way", "id": 382785821, "nodes": [919361274, 3860041800, 3860041778, 3860041776, 3860041733, 3860041734, 3860041713, 3860041754, 3860041821, 919361274], "tags": {"amenity": "cafe", "building": "yes", "height": "7.1"}}, {"type": "way", "id": 383139067, "nodes": [3863362107, 3863362106, 3863362111, 3863362112, 3863362107], "tags": {"addr:city": "Austin", "addr:housenumber": "704", "addr:postcode": "78733", "addr:state": "TX", "addr:street": "Cuernavaca Drive North", "air_conditioning": "yes", "amenity": "cafe", "building": "yes", "building:levels": "1", "check_date:opening_hours": "2024-09-27", "craft": "coffee_roaster", "cuisine": "coffee_shop", "delivery": "no", "diet:vegan": "yes", "diet:vegetarian": "yes", "height": "4.2", "indoor_seating": "yes", "internet_access": "wlan", "internet_access:ssid": "CivilGoat", "name": "Civil Goat Coffee", "opening_hours": "Mo-Su 08:00-15:00", "outdoor_seating": "yes", "payment:credit_cards": "yes", "payment:debit_cards": "yes", "roof:shape": "flat", "takeaway": "yes", "website": "https://www.civilgoat.com/", "wheelchair": "limited"}}, {"type": "way", "id": 383355029, "nodes": [9447901819, 3866035810, 3866035836, 3866036073, 9447901819], "tags": {"addr:city": "Austin", "addr:country": "US", "addr:housenumber": "1105", "addr:postcode": "78704", "addr:state": "TX", "addr:street": "South Lamar Boulevard", "amenity": "cafe", "brand": "Merit Coffee", "brand:website": "https://meritcoffee.com/", "building": "retail", "check_date": "2025-03-28", "height": "9.1", "image": "https://osm-img.piperswe.me/20250328_0153.jpg", "name": "Merit Coffee", "opening_hours": "Mo-Su 07:00-19:00", "phone": "+1-512-906-0010"}}, {"type": "way", "id": 383379028, "nodes": [3866302130, 3866302129, 3866302127, 3866302128, 3866302126, 3866302131, 3866302133, 3866302132, 3866302137, 3866302135, 3866302136, 3866302130], "tags": {"addr:city": "Austin", "addr:housenumber": "2304", "addr:postcode": "78704", "addr:state": "TX", "addr:street": "South Congress Avenue", "amenity": "cafe", "building": "yes", "cuisine": "coffee_shop", "height": "6.4", "name": "Teal House"}}, {"type": "way", "id": 383379312, "nodes": [3866311667, 3866311621, 3866311628, 3866311611, 3866311674, 3866311738, 3866311667], "tags": {"addr:city": "Austin", "addr:housenumber": "2110", "addr:postcode": "78704", "addr:state": "TX", "addr:street": "South Congress Avenue", "air_conditioning": "yes", "amenity": "cafe", "bar": "yes", "building": "yes", "check_date:currency:XBT": "2022-08-02", "cuisine": "coffee_shop;pizza;sandwich;burger", "height": "5.8", "internet_access": "wlan", "internet_access:fee": "customers", "internet_access:ssid": "Meteor-Public - wireless WiFi", "name": "The Meteor Cafe", "opening_hours": "Mo-Th 07:00-22:00; Fr-Sa 07:00-23:00; Su 07:00-22:00", "outdoor_seating": "yes", "phone": "+1 512 351 9541", "website": "https://espressochampagnechainlube.com/"}}, {"type": "way", "id": 383818378, "nodes": [3871327046, 3871327045, 3871327044, 3871327041, 3871327042, 3871327039, 3871327040, 3871327043, 3871327048, 3871327046], "tags": {"addr:city": "Austin", "addr:housenumber": "6816", "addr:postcode": "78745", "addr:state": "TX", "addr:street": "West Gate Boulevard", "amenity": "cafe", "brand": "Starbucks", "brand:wikidata": "Q37158", "building": "yes", "building:levels": "1", "cuisine": "coffee_shop", "height": "6.7", "internet_access": "yes", "name": "Starbucks", "official_name": "Starbucks Coffee", "opening_hours": "Mo-Su 05:00-21:00", "phone": "+1-512-444-7494", "takeaway": "yes"}}, {"type": "way", "id": 383840137, "nodes": [3506571688, 3871505434, 3871505388, 3871505394, 3871505390, 3871505395, 3871505399, 3871505420, 3871505441, 3871505468, 3506571688], "tags": {"addr:city": "Austin", "addr:housenumber": "2300", "addr:postcode": "78704", "addr:state": "TX", "addr:street": "South IH-35 South", "amenity": "cafe", "branch": "I-35 & Oltorf", "brand": "Starbucks", "brand:wikidata": "Q37158", "building": "yes", "cuisine": "coffee_shop", "height": "5.3", "name": "Starbucks", "official_name": "Starbucks Coffee", "phone": "+1 512-707-0039", "ref": "12495", "takeaway": "yes", "website": "https://www.starbucks.com/store-locator/store/12495/i-35-oltorf-2300-s-ih-35-south-austin-tx-787044447-us"}}, {"type": "way", "id": 383888087, "nodes": [3871927252, 3871927246, 3871927237, 3871927239, 3871927236, 3871927232, 3871927234, 3871927230, 3871927209, 3871927215, 3871927220, 3871927227, 3871927235, 3871927240, 3871927245, 3871927247, 3871927261, 3871927256, 3871927254, 3871927248, 3871927252], "tags": {"addr:housenumber": "3504", "addr:street": "Montopolis Drive", "amenity": "cafe", "bar": "yes", "building": "yes", "description": "coffee shop+bar with frequent live music", "height": "6.0", "live_music": "yes", "name": "Radio East", "website": "https://radiocoffeeandbeer.com/"}}, {"type": "way", "id": 384058531, "nodes": [3873540336, 3873540343, 3873540241, 3873540180, 3873540055, 3873540030, 3873540040, 3873540035, 3873540255, 3873540231, 3873540291, 3873540312, 3873540337, 3873540374, 3873540258, 3873540287, 3873540307, 3873540336], "tags": {"addr:housenumber": "10542", "addr:street": "Manchaca Road", "amenity": "cafe", "building": "yes", "cuisine": "coffee_shop", "height": "5.6", "internet_access": "wlan", "name": "The Hive", "opening_hours": "Tu-Su 07:00-22:00", "website": "http://www.hiveaustin.com/"}}, {"type": "way", "id": 575188143, "nodes": [5519815700, 5519815701, 5519815702, 5519815703, 5519815704, 5519815705, 5519815706, 5519815707, 5519815708, 5519815700], "tags": {"amenity": "cafe", "building": "yes", "check_date": "2025-02-16", "cuisine": "sandwich", "name": "Barley Bean"}}, {"type": "way", "id": 609760576, "nodes": [5775290059, 5775290060, 5775290061, 5775290062, 5775290059], "tags": {"addr:housenumber": "8300", "addr:postcode": "78726", "addr:street": "Ranch Road 620 North", "amenity": "cafe", "building": "yes", "cuisine": "coffee_shop", "internet_access": "wlan", "name": "Summer Moon Coffee", "opening_hours": "Mo-Fr 06:00-20:00; Sa-Su 07:00-20:00", "phone": "+1 512-432-5070", "website": "https://locations.summermooncoffee.com/locations/8300-n-fm-austin"}}, {"type": "way", "id": 646152698, "nodes": [6072052585, 6072052586, 6072052587, 6072052588, 6072052585], "tags": {"addr:city": "Austin", "addr:housenumber": "1200", "addr:postcode": "78704", "addr:state": "TX", "addr:street": "Barton Springs Road", "amenity": "cafe", "branch": "Barton Springs & South Lamar", "brand": "Starbucks", "brand:wikidata": "Q37158", "building": "yes", "cuisine": "coffee_shop", "name": "Starbucks", "official_name": "Starbucks Coffee", "phone": "+1 512-482-8592", "ref": "1023222", "takeaway": "yes", "website": "https://www.starbucks.com/store-locator/store/1023222/barton-springs-s-lamar-1200-barton-springs-rd-austin-tx-787041008-us"}}, {"type": "way", "id": 677947934, "nodes": [6347912283, 6347912284, 6347912785, 8355560387, 8355560386, 8355560389, 8355560388, 8780196261, 6347912786, 8780196260, 8355560390, 8355560391, 6347912283], "tags": {"addr:city": "Austin", "addr:housenumber": "9617", "addr:postcode": "78750", "addr:state": "TX", "addr:street": "Anderson Mill Road", "addr:unit": "238", "amenity": "cafe", "branch": "Anderson Mill & 183", "brand": "Starbucks", "brand:wikidata": "Q37158", "building": "yes", "cuisine": "coffee_shop", "description": "Starbucks coffee", "name": "Starbucks", "official_name": "Starbucks Coffee", "phone": "+1 512-401-6253", "takeaway": "yes", "website": "https://www.starbucks.com/store-locator/store/1017572/anderson-mill-183-9617-anderson-mill-rd-238-austin-tx-78750-us", "wheelchair": "limited"}}, {"type": "way", "id": 724582090, "nodes": [6795476806, 6795476807, 8999352177, 6795476808, 6795476809, 8999352176, 6795476806], "tags": {"addr:city": "Austin", "addr:housenumber": "422", "addr:postcode": "78701", "addr:state": "TX", "addr:street": "Guadalupe Street", "addr:unit": "C", "amenity": "cafe", "building": "retail", "building:levels": "1", "cuisine": "american", "indoor_seating": "no", "name": "Rosen's Bagels", "opening_date": "2019-09-01", "opening_hours": "Mo-Fr 07:00-14:00; Sa-Su 08:00-15:00", "outdoor_seating": "yes", "website": "https://www.rosensbagels.com/"}}, {"type": "way", "id": 759446691, "nodes": [7093955643, 2452741370, 2452741181, 7093955642, 7093955643], "tags": {"addr:city": "Austin", "addr:housenumber": "12400", "addr:postcode": "78738", "addr:state": "TX", "addr:street": "State Highway 71 West", "addr:unit": "710", "amenity": "cafe", "branch": "Bee Caves & 71", "brand": "Starbucks", "brand:wikidata": "Q37158", "building:part": "yes", "cuisine": "coffee_shop", "name": "Starbucks", "official_name": "Starbucks Coffee", "phone": "+1 512-263-1866", "ref": "15523", "takeaway": "yes", "website": "https://www.starbucks.com/store-locator/store/15523/bee-caves-71-12400-state-hwy-71-west-710-austin-tx-787386514-us"}}, {"type": "way", "id": 868235118, "nodes": [8093097716, 8093121717, 8093121718, 8093121719, 8093097716], "tags": {"amenity": "cafe", "building:part": "yes", "name": "Chap Court"}}, {"type": "way", "id": 889647810, "nodes": [8270822339, 8270822340, 9358600075, 9358600074, 9358600073, 9358600072, 8270822341, 9358600076, 8270822342, 9358600070, 9358600071, 8270822339], "tags": {"addr:city": "Austin", "addr:housenumber": "2711", "addr:postcode": "78758", "addr:state": "TX", "addr:street": "West Braker Lane", "amenity": "cafe", "branch": "Burnet & Braker Lane", "brand": "Starbucks", "brand:wikidata": "Q37158", "building": "yes", "cuisine": "coffee_shop", "name": "Starbucks", "official_name": "Starbucks Coffee", "opening_hours": "Mo-Fr 05:00-21:00; Sa,Su 06:00-21:00", "phone": "+1 512-973-8200", "ref": "1028248", "takeaway": "yes", "website": "https://www.starbucks.com/store-locator/store/1028248/burnet-braker-lane-2711-w-braker-lane-austin-tx-78758-us"}}, {"type": "way", "id": 921850350, "nodes": [3857657574, 8558340193, 3857657364, 3857657408, 3857657574], "tags": {"amenity": "cafe", "building:part": "yes", "check_date": "2025-02-16", "name": "Soup Peddler"}}, {"type": "way", "id": 923904465, "nodes": [10788783517, 8576374599, 8576374591, 8576374589, 8576374597, 8576374604, 10788783517], "tags": {"addr:city": "Austin", "addr:housenumber": "12901", "addr:postcode": "78753", "addr:state": "TX", "addr:street": "North Interstate 35", "addr:unit": "Bldg 20, Unit 2001", "amenity": "cafe", "building": "retail", "cuisine": "coffee_shop", "drive_through": "yes", "internet_access": "yes", "internet_access:fee": "customers", "internet_access:ssid": "Summermoon", "name": "Summer Moon Coffee", "opening_hours": "Mo-Fr 06:00-20:00; Sa 07:00-20:00", "outdoor_seating": "no", "phone": "+1-512-609-8038", "website": "https://locations.summermooncoffee.com/locations/n-interstate-hwy-austin/"}}, {"type": "way", "id": 1008686099, "nodes": [9306865278, 9306865281, 9306865282, 9306865283, 9306865278], "tags": {"addr:city": "Austin", "addr:housenumber": "2510", "addr:postcode": "78704", "addr:state": "TX", "addr:street": "South Congress Avenue", "amenity": "cafe", "building": "yes", "name": "Simona's Coffee + Cocktails", "outdoor_seating": "yes"}}, {"type": "way", "id": 1012564735, "nodes": [9341722410, 9341722411, 9341722412, 9341722413, 9341722415, 9341730017, 9341722416, 9341722414, 9341722410], "tags": {"amenity": "cafe", "check_date": "2025-02-16", "check_date:diet:vegetarian": "2025-02-16", "diet:vegetarian": "yes", "indoor_seating": "yes", "level": "1", "name": "Caff\u00e8 Medici", "outdoor_seating": "no"}}, {"type": "way", "id": 1020979630, "nodes": [9416656304, 9416656305, 9416656306, 9416656303, 9416656304], "tags": {"addr:city": "Austin", "addr:housenumber": "310", "addr:postcode": "78701", "addr:state": "TX", "addr:street": "Colorado Street", "addr:unit": "A", "air_conditioning": "yes", "amenity": "cafe", "building": "yes", "cuisine": "venezuelan", "name": "Cuatro Gato", "outdoor_seating": "yes"}}, {"type": "way", "id": 1026291785, "nodes": [9462208189, 9462208190, 9462208191, 9462208192, 9462208189], "tags": {"amenity": "cafe", "building": "yes", "cuisine": "coffee_shop", "opening_hours": "Mo-Fr 07:00-13:00; Sa-Su 08:00-13:00", "outdoor_seating": "yes", "street_vendor": "food_truck"}}, {"type": "way", "id": 1201220171, "nodes": [10596546895, 11137481791, 11137481792, 12195865627, 11137481793, 10596546895], "tags": {"addr:city": "Austin", "addr:housenumber": "1815;1801", "addr:postcode": "78754", "addr:state": "TX", "addr:street": "East Parmer Lane", "amenity": "cafe", "branch": "Parmer", "brand": "Dutch Bros. Coffee", "brand:wikidata": "Q5317253", "building": "yes", "cuisine": "coffee_shop", "name": "Dutch Bros. Coffee", "ref": "DB613", "takeaway": "only", "website": "https://locations.dutchbros.com/dutch-bros-coffee-8f94c6780793"}}, {"type": "way", "id": 1208522903, "nodes": [3842175226, 11198016150, 11198016151, 8119665866, 11198016159, 11198016153, 11198016154, 3842175226], "tags": {"addr:city": "Austin", "addr:housenumber": "1910", "addr:postcode": "78705", "addr:state": "TX", "addr:street": "Guadalupe Street", "amenity": "cafe", "building": "yes", "cuisine": "taiwanese;cafe;drinks;bubble_tea", "internet_access": "wlan", "name": "CoCo's Cafe", "not:brand:wikidata": "Q5139723", "opening_hours": "Mo-Su 11:30-21:00; Mo-Th 11:00-21:00; Fr-Su 11:30-21:30", "phone": "+1-512-236-9398", "website": "https://www.cocos-cafe.com/"}}, {"type": "way", "id": 1213502018, "nodes": [1148144462, 11242814791, 11242814792, 11242814794, 11242814795, 11242814776, 1148144462], "tags": {"addr:city": "Austin", "addr:housenumber": "617", "addr:postcode": "78701", "addr:state": "TX", "addr:street": "Congress Avenue", "amenity": "cafe", "building": "yes", "cuisine": "coffee_shop", "name": "The Hideout Coffee House", "opening_hours": "Mo-We 07:00-19:00; Th,Fr 07:00-22:00; Sa 08:00-23:00; Su 08:00-17:00"}}, {"type": "way", "id": 1226615115, "nodes": [11404295569, 11374434914, 11374434915, 11374434916, 11374434917, 11374434918, 11374434919, 11374434920, 11374434921, 11374434922, 11374434923, 11374434924, 11404295569], "tags": {"addr:city": "Austin", "addr:housenumber": "7710", "addr:postcode": "78726", "addr:state": "TX", "addr:street": "Ranch Road 620 North", "addr:unit": "610", "amenity": "cafe", "branch": "FM 620 & Vista Park", "brand": "Starbucks", "brand:wikidata": "Q37158", "building": "yes", "cuisine": "coffee_shop", "internet_access": "wlan", "name": "Starbucks", "official_name": "Starbucks Coffee", "opening_hours": "Mo-Fr 05:00-20:00; Sa-Su 05:30-20:00", "phone": "+1 512-250-3533", "takeaway": "yes", "website": "https://www.starbucks.com/store-locator/store/15515"}}]}